{"type":"FeatureCollection","features":[{"type":"Feature","geometry":{"type":"MultiLineString","coordinates":[[[141.5468,41.7068],[141.5363,41.7024],[141.5268,41.6987],[141.5068,41.6907],[141.4868,41.6826],[141.4864,41.6824],[141.4668,41.6745],[141.4468,41.6659],[141.4392,41.6624],[141.4268,41.6568],[141.4068,41.6472],[141.3969,41.6424],[141.3868,41.6377],[141.3668,41.6281],[141.3549,41.6224],[141.3468,41.6186],[141.3268,41.609],[141.3068,41.6072],[141.2868,41.6085],[141.2668,41.6103],[141.2468,41.611],[141.2268,41.6106],[141.2068,41.6107],[141.1868,41.6108],[141.1668,41.6105],[141.1468,41.6095],[141.1268,41.6079],[141.1068,41.6061],[141.0868,41.6043],[141.0668,41.6028],[141.0468,41.6066],[141.0268,41.6106],[141.0068,41.6145],[140.9868,41.6177],[140.9668,41.6205],[140.9538,41.6224],[140.9468,41.6234],[140.9268,41.6262],[140.9068,41.6291],[140.8868,41.6319],[140.8668,41.6346],[140.8468,41.6367],[140.8268,41.6359],[140.8068,41.6337],[140.7868,41.6304],[140.7668,41.6258],[140.7533,41.6224],[140.7468,41.6206],[140.7268,41.6078],[140.7209,41.6024],[140.7068,41.5883],[140.701,41.5824],[140.6868,41.5677],[140.6819,41.5624],[140.6711,41.5424],[140.6668,41.5348],[140.6599,41.5224],[140.6479,41.5024],[140.6468,41.5006],[140.6359,41.4824],[140.6268,41.4671],[140.624,41.4624],[140.6124,41.4424],[140.6068,41.4327],[140.6009,41.4224],[140.5868,41.4058],[140.5786,41.4024],[140.5668,41.3992],[140.5468,41.3937],[140.5268,41.3881],[140.5068,41.3825],[140.5065,41.3824],[140.4868,41.3769],[140.4668,41.3762],[140.4468,41.3769],[140.4268,41.3783],[140.4068,41.3788],[140.3868,41.3762],[140.3668,41.3686],[140.3524,41.3624],[140.3468,41.3601],[140.3268,41.3515],[140.3068,41.3425],[140.3065,41.3424],[140.2868,41.3338],[140.2668,41.325],[140.261,41.3224],[140.2468,41.3156],[140.2268,41.3047],[140.2226,41.3024],[140.2068,41.2929],[140.188,41.2824],[140.1868,41.2817],[140.1668,41.2715],[140.147,41.2624],[140.1468,41.2623],[140.1268,41.2531],[140.1068,41.2443],[140.1023,41.2424],[140.0868,41.2357],[140.0668,41.229],[140.0513,41.2224],[140.0468,41.2209],[140.0268,41.213],[140.0068,41.2054],[139.9988,41.2024],[139.9868,41.1976],[139.9668,41.1898],[139.9473,41.1824],[139.9468,41.1822],[139.9268,41.1743],[139.9068,41.1666],[139.8954,41.1624],[139.8868,41.1589]]]},"properties":{"line":"kitahon","a":"hokkaido","b":"tohoku","sea":true}},{"type":"Feature","geometry":{"type":"MultiLineString","coordinates":[[[138.6957,36.7386],[138.7263,36.7638],[138.7672,36.7466],[138.8261,36.7717],[138.8215,36.8171],[138.8549,36.8119],[138.9162,36.851],[138.9321,36.8937],[138.979,36.8911],[138.9677,36.9302],[138.9697,36.9815],[139.047,36.9875],[139.0902,37.0196],[139.097,37.0588],[139.1792,36.9914],[139.1803,36.9647],[139.232,36.9406],[139.3934,36.9109],[139.4285,36.925],[139.4599,36.9697],[139.4947,36.9682],[139.6192,37.0173],[139.6735,37.0579],[139.7529,37.0711],[139.7724,37.0865],[139.8207,37.0865],[139.831,37.1324],[139.8977,37.1536],[139.9549,37.155],[140.1007,37.1227],[140.1378,37.1064],[140.1941,37.0641],[140.2046,37.024],[140.2408,37.0005],[140.2643,36.9334],[140.2941,36.9319],[140.3257,36.8928],[140.3631,36.8851],[140.3773,36.838],[140.4385,36.8216],[140.4637,36.7918],[140.5172,36.8279],[140.5394,36.8592],[140.5926,36.8813],[140.5674,36.9139],[140.6955,36.8883],[140.7936,36.8596]]]},"properties":{"line":"tohoku-tokyo","a":"tohoku","b":"tokyo","sea":false}},{"type":"Feature","geometry":{"type":"MultiLineString","coordinates":[[[138.6957,36.7386],[138.5434,36.7039],[138.5198,36.6889],[138.5252,36.6515],[138.458,36.6333],[138.4274,36.5961],[138.4285,36.5556],[138.4039,36.5209],[138.4009,36.4347],[138.4898,36.4016],[138.5334,36.4023],[138.5922,36.4245],[138.6481,36.4083],[138.6535,36.3031],[138.6004,36.2785],[138.6031,36.2479],[138.6347,36.2056],[138.637,36.1745],[138.5875,36.1605],[138.598,36.1381],[138.6346,36.1336],[138.6306,36.0913],[138.6438,36.0507],[138.6314,36.0283],[138.7127,35.9853],[138.7387,35.9384],[138.7288,35.9093],[138.6854,35.8933],[138.6761,35.8699],[138.6105,35.8742],[138.6055,35.9087],[138.5093,35.922],[138.4901,35.8964],[138.4544,35.9003],[138.4403,35.9523],[138.3703,35.9715],[138.2922,35.8667],[138.2483,35.8859],[138.1855,35.7949],[138.2356,35.7575],[138.1803,35.7128],[138.2186,35.6445],[138.2594,35.5519],[138.2562,35.3186],[138.2856,35.3046],[138.3283,35.3275],[138.3724,35.2994],[138.3673,35.2721],[138.3986,35.2003],[138.4292,35.1819],[138.4916,35.1685],[138.5322,35.2234],[138.5146,35.2632],[138.5125,35.3141],[138.5349,35.3306],[138.5316,35.4062],[138.5778,35.4419],[138.6096,35.3932],[138.6635,35.3983],[138.6804,35.3577],[138.8718,35.3818],[138.9162,35.4005],[138.9954,35.4031],[139.0187,35.3298],[139.0048,35.2897],[138.9752,35.2617],[138.9876,35.2012],[139.0286,35.1699],[139.0305,35.1497],[139.1115,35.1413]]]},"properties":{"line":"fc","a":"tokyo","b":"chubu","sea":false}},{"type":"Feature","geometry":{"type":"MultiLineString","coordinates":[[[137.7625,36.7664],[137.7499,36.7044],[137.7615,36.6651],[137.7443,36.6176],[137.7524,36.5954],[137.6887,36.5628],[137.6861,36.5372],[137.6511,36.4815],[137.6334,36.4257],[137.5873,36.3899],[137.5398,36.3926],[137.5116,36.4233],[137.461,36.4125],[137.4058,36.4263],[137.3949,36.4548],[137.3135,36.4251],[137.317,36.4596],[137.2789,36.4651],[137.2051,36.4343],[137.1607,36.4567],[137.0787,36.3845],[137.0051,36.2881],[136.9721,36.3092],[136.9467,36.3461],[136.9072,36.361],[136.842,36.3339],[136.8268,36.3032],[136.7921,36.2991],[136.8145,36.2663],[136.8515,36.2484],[136.7984,36.1728],[136.7682,36.1643],[136.7779,36.1305],[136.754,36.0864],[136.7345,36.0484],[136.7264,35.9959],[136.7535,35.9563],[136.7915,35.9467],[136.832,35.8581],[136.8026,35.8439],[136.7891,35.7995],[136.7233,35.8082],[136.6658,35.7852],[136.5897,35.7956],[136.5709,35.7776],[136.5233,35.7883],[136.4843,35.7753],[136.4331,35.7747],[136.3775,35.7952],[136.3283,35.7751],[136.3236,35.7169],[136.2806,35.6587]]]},"properties":{"line":"chubu-hokuriku","a":"chubu","b":"hokuriku","sea":false}},{"type":"Feature","geometry":{"type":"MultiLineString","coordinates":[[[136.2806,35.6587],[136.2887,35.6203],[136.3154,35.6233],[136.3178,35.5469],[136.4002,35.5299],[136.3876,35.4956],[136.4255,35.4477],[136.4115,35.4186],[136.4441,35.3895],[136.4152,35.3735],[136.4108,35.3138],[136.3908,35.2878],[136.3931,35.2532],[136.4149,35.2177],[136.4083,35.1872],[136.4543,35.1616],[136.436,35.1301],[136.4382,35.0652],[136.4182,35.0484],[136.4143,34.9796],[136.373,34.9418],[136.3571,34.9005],[136.2503,34.8578],[136.1653,34.8878],[136.0857,34.8857],[136.1073,34.8519],[136.0881,34.8113],[136.0218,34.7915],[136.0285,34.7572],[136.0552,34.7384],[136.0855,34.6763],[136.0646,34.6513],[136.0674,34.6217],[136.0495,34.5801],[136.0841,34.5593],[136.1518,34.5591],[136.1715,34.5341],[136.2116,34.5288],[136.218,34.484],[136.2059,34.4485],[136.1279,34.4449],[136.0885,34.4282],[136.0703,34.3881],[136.1017,34.3365],[136.0947,34.301],[136.1311,34.2517],[136.0926,34.19],[136.1141,34.1593],[136.0732,34.0333],[136.0186,34.0359],[136.0032,34.0097],[136.0129,33.9737],[135.9766,33.9664],[135.9686,33.929],[135.9278,33.9409],[135.9086,33.9184],[135.8804,33.9091],[135.8955,33.8688],[135.8744,33.8615],[135.8576,33.8729],[135.8563,33.818],[135.8978,33.7901],[135.9071,33.7667],[135.9659,33.7238],[136.0113,33.7235]]]},"properties":{"line":"chubu-kansai","a":"chubu","b":"kansai","sea":false}},{"type":"Feature","geometry":{"type":"MultiLineString","coordinates":[[[135.4865,35.558],[135.449,35.5235],[135.4743,35.507],[135.4588,35.4725],[135.5253,35.4207],[135.534,35.3775],[135.6419,35.3668],[135.7007,35.3437],[135.7684,35.3561],[135.8071,35.3853],[135.812,35.4117],[135.8904,35.4038],[135.9398,35.5204],[135.9815,35.4868],[136.0059,35.4916],[136.0261,35.5296],[136.1051,35.5288],[136.1123,35.5755],[136.1632,35.5707],[136.1767,35.5961],[136.1342,35.6699],[136.15,35.6978],[136.2647,35.6705],[136.2806,35.6587]]]},"properties":{"line":"hokuriku-kansai","a":"hokuriku","b":"kansai","sea":false}},{"type":"Feature","geometry":{"type":"MultiLineString","coordinates":[[[134.3695,35.6146],[134.4078,35.5877],[134.425,35.5419],[134.4398,35.4428],[134.4795,35.4253],[134.4719,35.383],[134.5133,35.3539],[134.504,35.3365],[134.5146,35.2773],[134.434,35.2295],[134.4022,35.241],[134.3805,35.2181],[134.4114,35.1861],[134.412,35.1567],[134.3663,35.1454],[134.3486,35.0903],[134.3185,35.0829],[134.3161,35.0433],[134.2806,35.035],[134.2754,34.9629],[134.2536,34.9461],[134.2944,34.9075],[134.2629,34.8849],[134.2531,34.8513],[134.3165,34.8016],[134.3213,34.7218]]]},"properties":{"line":"kansai-chugoku","a":"kansai","b":"chugoku","sea":false}},{"type":"Feature","geometry":{"type":"MultiLineString","coordinates":[[[134.9568,33.5989],[134.9576,33.6189],[134.9585,33.6389],[134.9587,33.6589],[134.9554,33.6789],[134.9531,33.6878],[134.9505,33.6989],[134.9456,33.7189],[134.9406,33.7389],[134.9357,33.7589],[134.9331,33.7688],[134.9307,33.7789],[134.925,33.7989],[134.9184,33.8189],[134.9131,33.8347],[134.9118,33.8389],[134.9052,33.8589],[134.8985,33.8789],[134.8931,33.8954],[134.8919,33.8989],[134.8853,33.9189],[134.8807,33.9389],[134.8842,33.9589],[134.888,33.9789],[134.8907,33.9989],[134.8876,34.0189],[134.8763,34.0389],[134.8731,34.0406],[134.8531,34.0459],[134.8331,34.0513],[134.8131,34.0564],[134.8016,34.0589],[134.7931,34.0609],[134.7731,34.0675],[134.7531,34.0744],[134.7398,34.0789],[134.7331,34.082],[134.7131,34.0969],[134.7114,34.0989],[134.6972,34.1189],[134.6931,34.1255],[134.6865,34.1389],[134.6795,34.1589],[134.6736,34.1789],[134.6731,34.1798],[134.6618,34.1989],[134.6531,34.2076],[134.6396,34.2189],[134.6331,34.2245],[134.6183,34.2389],[134.6131,34.2458],[134.6033,34.2589],[134.5931,34.2718],[134.5865,34.2789],[134.5731,34.2927],[134.5657,34.2989],[134.5531,34.3123],[134.5466,34.3189],[134.5331,34.3355],[134.5302,34.3389],[134.5159,34.3589],[134.5131,34.3634],[134.5047,34.3789],[134.513,34.3989],[134.5131,34.399],[134.5248,34.4189],[134.5331,34.432],[134.5377,34.4389],[134.5527,34.4589],[134.5531,34.4594],[134.5701,34.4789],[134.5731,34.484],[134.58,34.4989],[134.5874,34.5189],[134.5931,34.5358],[134.5942,34.5389],[134.5997,34.5589],[134.5931,34.57],[134.5833,34.5789],[134.5731,34.5854],[134.5531,34.5983],[134.5504,34.5989],[134.5331,34.6027],[134.5131,34.6062],[134.4931,34.6098],[134.4731,34.614],[134.4536,34.6189],[134.4531,34.619],[134.4331,34.6251],[134.4131,34.6316],[134.3931,34.6383],[134.3912,34.6389],[134.3731,34.6445],[134.3531,34.6437]]]},"properties":{"line":"kansai-shikoku","a":"kansai","b":"shikoku","sea":true}},{"type":"Feature","geometry":{"type":"MultiLineString","coordinates":[[[134.303,34.6379],[134.3013,34.6369],[134.283,34.6257],[134.263,34.6173],[134.2619,34.6169],[134.243,34.6096],[134.223,34.6003],[134.2165,34.5969],[134.203,34.5867],[134.1912,34.5769],[134.183,34.5715],[134.163,34.5594],[134.1589,34.5569],[134.143,34.5476],[134.123,34.5376],[134.1212,34.5369],[134.103,34.5295],[134.0861,34.5169],[134.083,34.5139],[134.0653,34.4969],[134.063,34.4942],[134.0487,34.4769],[134.0431,34.4569],[134.043,34.4567],[134.023,34.4416],[134.0053,34.4369],[134.003,34.4364],[133.983,34.4306],[133.963,34.4239],[133.943,34.4171],[133.9419,34.4169],[133.923,34.4131],[133.903,34.4126],[133.883,34.4151],[133.863,34.4156],[133.843,34.4108],[133.8275,34.3969],[133.823,34.393],[133.803,34.3824],[133.783,34.3771],[133.782,34.3769],[133.763,34.3725],[133.743,34.3693],[133.723,34.3678],[133.703,34.3674],[133.683,34.3677],[133.663,34.3654],[133.643,34.3624],[133.623,34.3585],[133.6154,34.3569],[133.603,34.3542],[133.583,34.3486],[133.563,34.3415],[133.552,34.3369],[133.543,34.333],[133.523,34.3242],[133.5086,34.3169],[133.503,34.3126],[133.4902,34.2969],[133.483,34.2874],[133.4748,34.2769],[133.463,34.2612],[133.4595,34.2569],[133.4442,34.2369],[133.443,34.2352],[133.4288,34.2169],[133.423,34.2089],[133.4134,34.1969],[133.403,34.1828],[133.392,34.1769],[133.383,34.1746],[133.363,34.1682],[133.343,34.1628],[133.3284,34.1569],[133.323,34.1552],[133.303,34.1552],[133.2959,34.1569],[133.283,34.1646],[133.2651,34.1769],[133.263,34.178],[133.243,34.1907],[133.2349,34.1969],[133.223,34.2036],[133.2037,34.2169],[133.203,34.2173],[133.183,34.2297],[133.1734,34.2369],[133.163,34.2435],[133.143,34.2486],[133.123,34.2497],[133.103,34.2504],[133.083,34.2461],[133.063,34.252],[133.0592,34.2569],[133.0505,34.2769],[133.0508,34.2969],[133.043,34.3089],[133.023,34.3127],[133.003,34.3126],[132.983,34.3131],[132.963,34.3079],[132.943,34.297],[132.9429,34.2969],[132.9363,34.2769],[132.943,34.2606],[132.9447,34.2569],[132.943,34.2473],[132.9413,34.2369],[132.9254,34.2169],[132.923,34.2123],[132.9153,34.1969],[132.9121,34.1769],[132.903,34.1682],[132.8851,34.1569],[132.883,34.1559],[132.863,34.1486],[132.843,34.1422],[132.8254,34.1369],[132.823,34.1363],[132.803,34.1363],[132.783,34.1364],[132.763,34.1347],[132.743,34.1229],[132.734,34.1169],[132.723,34.1098],[132.703,34.1029],[132.683,34.1018],[132.6687,34.0969],[132.663,34.0936],[132.643,34.0796],[132.6398,34.0769],[132.623,34.0641],[132.6152,34.0569],[132.603,34.0476],[132.5884,34.0369],[132.583,34.0336],[132.563,34.0243],[132.543,34.0183],[132.5366,34.0169],[132.523,34.0134],[132.503,34.0077],[132.4869,33.9969],[132.483,33.9937],[132.463,33.9781],[132.4612,33.9769],[132.4574,33.9569],[132.463,33.9476],[132.4691,33.9369],[132.4794,33.9169],[132.483,33.9079],[132.4874,33.8969],[132.4951,33.8769],[132.5028,33.8569],[132.503,33.8562],[132.5106,33.8369],[132.515,33.8169],[132.5089,33.7969],[132.503,33.79],[132.4844,33.7769],[132.483,33.7761],[132.463,33.7666],[132.443,33.7571],[132.4425,33.7569],[132.423,33.748],[132.403,33.7402],[132.3932,33.7369],[132.383,33.7335],[132.363,33.7279],[132.343,33.7225],[132.323,33.7169],[132.3229,33.7169],[132.303,33.7048],[132.2912,33.6969],[132.283,33.6916],[132.263,33.6815],[132.2493,33.6769],[132.243,33.6749],[132.223,33.6689],[132.203,33.6632],[132.183,33.6581],[132.1772,33.6569],[132.163,33.6539],[132.143,33.6535],[132.123,33.6547],[132.103,33.6559],[132.0859,33.6569],[132.083,33.6571],[132.063,33.6582],[132.043,33.6569],[132.043,33.6569],[132.023,33.6544]]]},"properties":{"line":"chugoku-shikoku","a":"chugoku","b":"shikoku","sea":true}},{"type":"Feature","geometry":{"type":"MultiLineString","coordinates":[[[132.0104,33.6569],[132.0016,33.6635],[131.9823,33.6769],[131.9816,33.6773],[131.9616,33.69],[131.9511,33.6969],[131.9416,33.7028],[131.9216,33.7161],[131.9205,33.7169],[131.9016,33.7308],[131.8939,33.7369],[131.8816,33.7472],[131.8707,33.7569],[131.8616,33.7651],[131.8457,33.7769],[131.8416,33.7796],[131.8216,33.7927],[131.8152,33.7969],[131.8016,33.8058],[131.7816,33.8164],[131.7797,33.8169],[131.7616,33.8215],[131.7416,33.8267],[131.7216,33.8318],[131.7018,33.8369],[131.7016,33.8369],[131.6816,33.844],[131.6616,33.853],[131.6416,33.8531],[131.6216,33.851],[131.6016,33.849],[131.5816,33.8469],[131.5616,33.8449],[131.5416,33.8428],[131.5216,33.8408],[131.5016,33.8395],[131.4885,33.8369],[131.4816,33.8355],[131.4616,33.8314],[131.4416,33.8237],[131.4247,33.8169],[131.4216,33.8156],[131.4016,33.8063],[131.3838,33.7969],[131.3816,33.7957],[131.3616,33.7835],[131.3509,33.7769],[131.3416,33.771],[131.3216,33.7585],[131.3016,33.7571],[131.2816,33.7596],[131.2616,33.7629],[131.2416,33.7665],[131.2216,33.7702],[131.2047,33.7769],[131.2016,33.7791],[131.1816,33.793],[131.1763,33.7969],[131.1616,33.8063],[131.1464,33.8169],[131.1416,33.82],[131.1216,33.8356],[131.1202,33.8369],[131.1103,33.8569],[131.1026,33.8769],[131.1016,33.8809],[131.098,33.8969],[131.0965,33.9169],[131.0974,33.9369],[131.096,33.9569],[131.0816,33.9761],[131.0808,33.9769],[131.0616,33.9911],[131.0416,33.99],[131.0216,33.9828],[131.008,33.9769],[131.0016,33.9741],[130.9816,33.9668],[130.9616,33.9656],[130.9546,33.9569],[130.9416,33.9457],[130.936,33.9369],[130.9216,33.9216],[130.913,33.9169],[130.9016,33.911],[130.8915,33.9169],[130.8816,33.9298],[130.8787,33.9369],[130.8702,33.9569],[130.8616,33.9705],[130.8554,33.9769],[130.8416,33.9861],[130.8221,33.9969],[130.8216,33.9972],[130.8016,34.0161],[130.8006,34.0169],[130.7816,34.0304],[130.7677,34.0369],[130.7616,34.0394],[130.7416,34.0485],[130.725,34.0569],[130.7216,34.0589],[130.7016,34.0713],[130.6928,34.0769],[130.6816,34.0851],[130.6644,34.0969],[130.6616,34.0991],[130.6416,34.1133],[130.6361,34.1169],[130.6216,34.1276],[130.6079,34.1369],[130.6016,34.1417],[130.5816,34.1557],[130.5798,34.1569],[130.5616,34.1701]]]},"properties":{"line":"chugoku-kyushu","a":"chugoku","b":"kyushu","sea":true}}]}
