{"type":"FeatureCollection","features":[
{"type":"Feature","geometry":{"type":"Point","coordinates":[138.5992,37.4309]},"properties":{"id":"way/216480979","name":"Kashiwazaki-Kariwa Nuclear Power Plant","fuel":"nuclear","mw":8212}},
{"type":"Feature","geometry":{"type":"Point","coordinates":[140.7013,35.9163]},"properties":{"id":"way/300345952","name":"Kashima Power Station","fuel":"otherThermal","mw":5660}},
{"type":"Feature","geometry":{"type":"Point","coordinates":[139.8322,35.3424]},"properties":{"id":"way/605327357","name":"Futtsu Power Station","fuel":"gas","mw":5040}},
{"type":"Feature","geometry":{"type":"Point","coordinates":[136.6887,35.0089]},"properties":{"id":"way/180359727","name":"Kawagoe Power Station","fuel":"gas","mw":4802}},
{"type":"Feature","geometry":{"type":"Point","coordinates":[135.6547,35.5411]},"properties":{"id":"way/605382252","name":"Ōi Nuclear Power Plant","fuel":"nuclear","mw":4494}},
{"type":"Feature","geometry":{"type":"Point","coordinates":[141.0177,37.2347]},"properties":{"id":"way/103812542","name":"Hirono Power Station","fuel":"otherThermal","mw":4400}},
{"type":"Feature","geometry":{"type":"Point","coordinates":[141.0222,37.3161]},"properties":{"id":"way/104409614","name":"Fukushima II Nuclear Power Plant","fuel":"nuclear","mw":4400}},
{"type":"Feature","geometry":{"type":"Point","coordinates":[140.1072,35.5649]},"properties":{"id":"way/605327355","name":"Chiba Thermal Power Station","fuel":"gas","mw":4380}},
{"type":"Feature","geometry":{"type":"Point","coordinates":[134.6917,34.7738]},"properties":{"id":"way/367261461","name":"Himeji-Daini Power Station","fuel":"gas","mw":4119}},
{"type":"Feature","geometry":{"type":"Point","coordinates":[139.2431,37.9982]},"properties":{"id":"way/1428285055","name":"Higashi Niigata Thermal Power Station","fuel":"gas","mw":4110}},
{"type":"Feature","geometry":{"type":"Point","coordinates":[136.9605,34.8404]},"properties":{"id":"way/101926129","name":"碧南火力発電所","fuel":"coal","mw":4100}},
{"type":"Feature","geometry":{"type":"Point","coordinates":[136.8451,34.986]},"properties":{"id":"way/180359744","name":"Chita Power Station","fuel":"gas","mw":3966}},
{"type":"Feature","geometry":{"type":"Point","coordinates":[138.1468,34.6227]},"properties":{"id":"way/806310370","name":"Hamaoka Nuclear Power Plant","fuel":"nuclear","mw":3617}},
{"type":"Feature","geometry":{"type":"Point","coordinates":[139.9768,35.4626]},"properties":{"id":"way/605327358","name":"Sodegaura Power Station","fuel":"gas","mw":3600}},
{"type":"Feature","geometry":{"type":"Point","coordinates":[140.0174,35.485]},"properties":{"id":"way/605327360","name":"Anegasaki Power Station","fuel":"gas","mw":3600}},
{"type":"Feature","geometry":{"type":"Point","coordinates":[129.8354,33.5152]},"properties":{"id":"way/172644773","name":"Genkai Nuclear Power Plant","fuel":"nuclear","mw":3478}},
{"type":"Feature","geometry":{"type":"Point","coordinates":[139.7626,35.5133]},"properties":{"id":"way/605327354","name":"Kawasaki Power Station","fuel":"gas","mw":3420}},
{"type":"Feature","geometry":{"type":"Point","coordinates":[135.504,35.523]},"properties":{"id":"way/456491990","name":"Takahama Nuclear Power Plant","fuel":"nuclear","mw":3392}},
{"type":"Feature","geometry":{"type":"Point","coordinates":[136.8782,35.0665]},"properties":{"id":"way/180359734","name":"Shin-Nagoya Power Plant","fuel":"gas","mw":3058}},
{"type":"Feature","geometry":{"type":"Point","coordinates":[131.7069,33.268]},"properties":{"id":"way/216781917","name":"Shin Oita Thermal Power Plant","fuel":"gas","mw":2825}},
{"type":"Feature","geometry":{"type":"Point","coordinates":[139.6786,35.4751]},"properties":{"id":"way/605327349","name":"Yokohama CCGT Power Station","fuel":"gas","mw":2800}},
{"type":"Feature","geometry":{"type":"Point","coordinates":[138.2775,37.2053]},"properties":{"id":"way/618344823","name":"Joetsu Power Plant","fuel":"gas","mw":2380}},
{"type":"Feature","geometry":{"type":"Point","coordinates":[136.8312,35.0322]},"properties":{"id":"way/177598084","name":"Nishi-Nagoya Power Plant","fuel":"gas","mw":2376.4}},
{"type":"Feature","geometry":{"type":"Point","coordinates":[141.4992,38.399]},"properties":{"id":"way/1341021071","name":"Onagawa Nuclear Power Plant","fuel":"nuclear","mw":2174}},
{"type":"Feature","geometry":{"type":"Point","coordinates":[134.6529,33.8575]},"properties":{"id":"way/605382257","name":"Tachibanawan power station","fuel":"coal","mw":2100}},
{"type":"Feature","geometry":{"type":"Point","coordinates":[140.5121,43.0362]},"properties":{"id":"way/115880550","name":"Tomari Nuclear Power Plant","fuel":"nuclear","mw":2070}},
{"type":"Feature","geometry":{"type":"Point","coordinates":[140.6182,36.438]},"properties":{"id":"way/103827577","name":"Hitachinaka Thermal power station","fuel":"coal","mw":2000}},
{"type":"Feature","geometry":{"type":"Point","coordinates":[141.0128,37.6677]},"properties":{"id":"way/104299829","name":"Haramachi power station","fuel":"coal","mw":2000}},
{"type":"Feature","geometry":{"type":"Point","coordinates":[129.6919,33.3563]},"properties":{"id":"way/216798224","name":"J-Power Matsuura Thermal Power Plant","fuel":"coal","mw":2000}},
{"type":"Feature","geometry":{"type":"Point","coordinates":[139.7452,35.4957]},"properties":{"id":"way/605327352","name":"東扇島火力発電所","fuel":"gas","mw":2000}},
{"type":"Feature","geometry":{"type":"Point","coordinates":[135.4402,34.5691]},"properties":{"id":"way/605687568","name":"Shin Sakaiko Power Plant","fuel":"gas","mw":2000}},
{"type":"Feature","geometry":{"type":"Point","coordinates":[140.9402,37.845]},"properties":{"id":"relation/9626992","name":"Shinchi Power Station","fuel":"coal","mw":2000}},
{"type":"Feature","geometry":{"type":"Point","coordinates":[140.8154,36.9139]},"properties":{"id":"relation/12893891","name":"Nakoso Power Plant","fuel":"coal","mw":1975}},
{"type":"Feature","geometry":{"type":"Point","coordinates":[136.7292,37.061]},"properties":{"id":"way/255763556","name":"Shika Nuclear Power Plant","fuel":"nuclear","mw":1898}},
{"type":"Feature","geometry":{"type":"Point","coordinates":[135.151,33.8595]},"properties":{"id":"way/472081615","name":"Gobo Power Plant","fuel":"otherThermal","mw":1800}},
{"type":"Feature","geometry":{"type":"Point","coordinates":[135.4059,34.6177]},"properties":{"id":"way/589991969","name":"Nanko Thermal Power Plant","fuel":"gas","mw":1800}},
{"type":"Feature","geometry":{"type":"Point","coordinates":[135.343,35.5275]},"properties":{"id":"way/605420894","name":"Maizuru Power Plant","fuel":"coal","mw":1800}},
{"type":"Feature","geometry":{"type":"Point","coordinates":[130.8602,33.9083]},"properties":{"id":"way/605420902","name":"Shin Kokura Thermal Power Plant","fuel":"gas","mw":1800}},
{"type":"Feature","geometry":{"type":"Point","coordinates":[136.8636,35.0058]},"properties":{"id":"way/180359747","name":"Chita Daini Thermal Power Plant","fuel":"gas","mw":1708}},
{"type":"Feature","geometry":{"type":"Point","coordinates":[129.6823,33.3507]},"properties":{"id":"way/216798219","name":"Kyusyu Electric Power Matsuura Thermal Power Plant","fuel":"coal","mw":1700}},
{"type":"Feature","geometry":{"type":"Point","coordinates":[130.1894,31.8333]},"properties":{"id":"way/215429864","name":"Sendai Nuclear Power Plant","fuel":"nuclear","mw":1692}},
{"type":"Feature","geometry":{"type":"Point","coordinates":[141.8045,42.6102]},"properties":{"id":"way/605420896","name":"苫東厚真火力発電所","fuel":"coal","mw":1650}},
{"type":"Feature","geometry":{"type":"Point","coordinates":[140.0492,39.7838]},"properties":{"id":"way/341478004","name":"秋田火力発電所","fuel":"otherThermal","mw":1633}},
{"type":"Feature","geometry":{"type":"Point","coordinates":[138.8886,35.7162]},"properties":{"id":"way/1087202479","name":"葛野川地下発電所","fuel":"hydro","mw":1600}},
{"type":"Feature","geometry":{"type":"Point","coordinates":[138.7663,36.847]},"properties":{"id":"relation/13413356","name":"奥清津発電所","fuel":"hydro","mw":1600}},
{"type":"Feature","geometry":{"type":"Point","coordinates":[132.1257,33.9515]},"properties":{"id":"way/605420904","name":"Yanai Power Plant","fuel":"gas","mw":1542}},
{"type":"Feature","geometry":{"type":"Point","coordinates":[134.6682,34.7747]},"properties":{"id":"way/364849743","name":"Himeji-Daiichi CC Power Plant","fuel":"gas","mw":1507}},
{"type":"Feature","geometry":{"type":"Point","coordinates":[137.1284,36.7645]},"properties":{"id":"way/605420895","name":"Toyama Shinko Thermal Power Station","fuel":"coal","mw":1500}},
{"type":"Feature","geometry":{"type":"Point","coordinates":[132.3089,33.489]},"properties":{"id":"way/456491989","name":"Ikata Nuclear Power Plant","fuel":"nuclear","mw":1456}},
{"type":"Feature","geometry":{"type":"Point","coordinates":[130.0418,32.4853]},"properties":{"id":"way/216616659","name":"Reihoku Thermal Power Plant","fuel":"coal","mw":1400}},
{"type":"Feature","geometry":{"type":"Point","coordinates":[135.2403,34.7033]},"properties":{"id":"way/456491991","name":"Kobe Power Plant","fuel":"coal","mw":1400}},
{"type":"Feature","geometry":{"type":"Point","coordinates":[137.0667,34.6547]},"properties":{"id":"way/605433848","name":"Atsumi Power Plant","fuel":"otherThermal","mw":1400}},
{"type":"Feature","geometry":{"type":"Point","coordinates":[133.8453,34.3418]},"properties":{"id":"way/605687599","name":"Sakaide Power Plant","fuel":"gas","mw":1385}},
{"type":"Feature","geometry":{"type":"Point","coordinates":[132.958,34.3372]},"properties":{"id":"way/605382259","name":"Takehara Thermal Power Plant","fuel":"coal","mw":1300}},
{"type":"Feature","geometry":{"type":"Point","coordinates":[139.7179,35.2161]},"properties":{"id":"way/1347097154","name":"JERA 横須賀火力発電所","fuel":"coal","mw":1300}},
{"type":"Feature","geometry":{"type":"Point","coordinates":[139.9739,36.4575]},"properties":{"id":"way/704399794","name":"真岡発電所","fuel":"gas","mw":1248}},
{"type":"Feature","geometry":{"type":"Point","coordinates":[134.6535,33.8782]},"properties":{"id":"way/605689959","name":"Anan Power Station","fuel":"otherThermal","mw":1245}},
{"type":"Feature","geometry":{"type":"Point","coordinates":[139.7024,35.4792]},"properties":{"id":"way/588341171","name":"扇島パワーステーション","fuel":"gas","mw":1221.3}},
{"type":"Feature","geometry":{"type":"Point","coordinates":[135.8226,34.1131]},"properties":{"id":"way/169031922","name":"奥吉野発電所","fuel":"hydro","mw":1206}},
{"type":"Feature","geometry":{"type":"Point","coordinates":[139.6413,35.4044]},"properties":{"id":"way/404901529","name":"Isogo Thermal Power Station","fuel":"coal","mw":1200}},
{"type":"Feature","geometry":{"type":"Point","coordinates":[134.3767,34.7403]},"properties":{"id":"way/500196924","name":"Ako Power Plant","fuel":"otherThermal","mw":1200}},
{"type":"Feature","geometry":{"type":"Point","coordinates":[139.9918,40.1945]},"properties":{"id":"way/605420899","name":"Noshiro Thermal Power Station","fuel":"coal","mw":1200}},
{"type":"Feature","geometry":{"type":"Point","coordinates":[136.08,35.6723]},"properties":{"id":"way/605433847","name":"Tsuruga Hokuriku Power Plant","fuel":"coal","mw":1200}},
{"type":"Feature","geometry":{"type":"Point","coordinates":[133.6873,34.516]},"properties":{"id":"way/605687579","name":"Tamashima Power Plant","fuel":"otherThermal","mw":1200}},
{"type":"Feature","geometry":{"type":"Point","coordinates":[131.3706,32.2511]},"properties":{"id":"way/756358390","name":"小丸川水力発電所","fuel":"hydro","mw":1200}},
{"type":"Feature","geometry":{"type":"Point","coordinates":[139.0417,36.8005]},"properties":{"id":"way/1087213711","name":"玉原発電所","fuel":"hydro","mw":1200}},
{"type":"Feature","geometry":{"type":"Point","coordinates":[136.9239,34.8234]},"properties":{"id":"way/605420897","name":"Taketoyo Thermal Power Station","fuel":"otherThermal","mw":1175}},
{"type":"Feature","geometry":{"type":"Point","coordinates":[136.02,35.752]},"properties":{"id":"way/449155824","name":"Tsuruga Nuclear Power Plant","fuel":"nuclear","mw":1160}},
{"type":"Feature","geometry":{"type":"Point","coordinates":[140.6891,35.9502]},"properties":{"id":"way/754317488","name":"Nippon Steel Kashima Thermal Power Station","fuel":"coal","mw":1152}},
{"type":"Feature","geometry":{"type":"Point","coordinates":[139.8607,35.3629]},"properties":{"id":"way/911057102","name":"Kimitsu Joint Power Plant","fuel":"gas","mw":1152}},
{"type":"Feature","geometry":{"type":"Point","coordinates":[139.6376,35.4045]},"properties":{"id":"way/404901530","name":"Minami Yokohama Power Station","fuel":"gas","mw":1150}},
{"type":"Feature","geometry":{"type":"Point","coordinates":[139.7566,35.6207]},"properties":{"id":"way/565401935","name":"JERA Shinagawa Thermal Power Station","fuel":"gas","mw":1140}},
{"type":"Feature","geometry":{"type":"Point","coordinates":[141.3896,41.1877]},"properties":{"id":"way/605420907","name":"Higashidōri Nuclear Power Plant","fuel":"nuclear","mw":1100}},
{"type":"Feature","geometry":{"type":"Point","coordinates":[140.6083,36.4679]},"properties":{"id":"relation/1527911","name":"Tōkai nuclear power plant","fuel":"nuclear","mw":1100}},
{"type":"Feature","geometry":{"type":"Point","coordinates":[139.7571,35.6149]},"properties":{"id":"way/933948968","name":"Oi thermal power station","fuel":"otherThermal","mw":1050}},
{"type":"Feature","geometry":{"type":"Point","coordinates":[139.6697,36.8329]},"properties":{"id":"way/1030329142","name":"今市発電所","fuel":"hydro","mw":1050}},
{"type":"Feature","geometry":{"type":"Point","coordinates":[141.0392,38.2765]},"properties":{"id":"way/929828153","name":"Shin Sendai Thermal Power Plant","fuel":"gas","mw":1046}},
{"type":"Feature","geometry":{"type":"Point","coordinates":[129.5976,32.9376]},"properties":{"id":"way/220707452","name":"Matsushima Power Plant","fuel":"coal","mw":1000}},
{"type":"Feature","geometry":{"type":"Point","coordinates":[130.2003,31.8588]},"properties":{"id":"way/365487155","name":"Sendai Kawauchi Thermal Power Plant","fuel":"otherThermal","mw":1000}},
{"type":"Feature","geometry":{"type":"Point","coordinates":[131.9207,34.7792]},"properties":{"id":"way/605433849","name":"Misumi Power Plant","fuel":"coal","mw":1000}},
{"type":"Feature","geometry":{"type":"Point","coordinates":[140.6887,35.9404]},"properties":{"id":"way/912485878","name":"Kashima Kyodo Thermal Power Plant","fuel":"coal","mw":1000}},
{"type":"Feature","geometry":{"type":"Point","coordinates":[138.7027,36.0322]},"properties":{"id":"way/1007511426","name":"神流川水力発電所","fuel":"hydro","mw":940}},
{"type":"Feature","geometry":{"type":"Point","coordinates":[139.8644,36.9935]},"properties":{"id":"way/1030329140","name":"塩原発電所","fuel":"hydro","mw":900}},
{"type":"Feature","geometry":{"type":"Point","coordinates":[130.8469,33.9262]},"properties":{"id":"way/605420901","name":"Tobata Thermal Power Plant","fuel":"gas","mw":891}},
{"type":"Feature","geometry":{"type":"Point","coordinates":[129.6488,33.1965]},"properties":{"id":"way/219579622","name":"Ainoura Power Plant","fuel":"otherThermal","mw":875}},
{"type":"Feature","geometry":{"type":"Point","coordinates":[132.2023,34.1183]},"properties":{"id":"way/605420903","name":"Iwakuni Power Plant","fuel":"otherThermal","mw":850}},
{"type":"Feature","geometry":{"type":"Point","coordinates":[139.7249,35.4994]},"properties":{"id":"way/1161552601","name":"Kawasaki Natural Gas Power Generation (KNGPG) Plant","fuel":"gas","mw":847}},
{"type":"Feature","geometry":{"type":"Point","coordinates":[133.4423,34.4795]},"properties":{"id":"way/605687573","name":"Fukuyama Setouchi Power Plant","fuel":"gas","mw":844}},
{"type":"Feature","geometry":{"type":"Point","coordinates":[135.9617,35.7036]},"properties":{"id":"way/605420905","name":"Mihama Nuclear Power Plant","fuel":"nuclear","mw":826}},
{"type":"Feature","geometry":{"type":"Point","coordinates":[132.9981,35.5361]},"properties":{"id":"way/605382253","name":"Shimane Nuclear Power Plant","fuel":"nuclear","mw":820}},
{"type":"Feature","geometry":{"type":"Point","coordinates":[139.719,35.499]},"properties":{"id":"way/79238458","name":"川崎火力発電所","fuel":"gas","mw":807}},
{"type":"Feature","geometry":{"type":"Point","coordinates":[133.7457,34.5084]},"properties":{"id":"way/605687591","name":"Mizushima Power Plant","fuel":"gas","mw":781}},
{"type":"Feature","geometry":{"type":"Point","coordinates":[135.2568,35.5567]},"properties":{"id":"way/1029051469","name":"Miyazu Energy Research Center","fuel":"otherThermal","mw":750}},
{"type":"Feature","geometry":{"type":"Point","coordinates":[131.851,34.0114]},"properties":{"id":"way/317614555","name":"Kudamatsu Power Plant","fuel":"otherThermal","mw":700}},
{"type":"Feature","geometry":{"type":"Point","coordinates":[134.6557,33.8643]},"properties":{"id":"way/605382258","name":"Tachibanawan Power Station","fuel":"coal","mw":700}},
{"type":"Feature","geometry":{"type":"Point","coordinates":[139.8332,38.9696]},"properties":{"id":"way/605420891","name":"Sakata Kyodo Power Plant","fuel":"coal","mw":700}},
{"type":"Feature","geometry":{"type":"Point","coordinates":[140.4259,41.5828]},"properties":{"id":"way/620215004","name":"Shiriuchi Power Plant","fuel":"otherThermal","mw":700}},
{"type":"Feature","geometry":{"type":"Point","coordinates":[140.8273,42.4827]},"properties":{"id":"way/948853450","name":"Date Power Station","fuel":"otherThermal","mw":700}},
{"type":"Feature","geometry":{"type":"Point","coordinates":[139.9102,37.0943]},"properties":{"id":"way/658953552","name":"沼原発電所","fuel":"hydro","mw":675}},
{"type":"Feature","geometry":{"type":"Point","coordinates":[131.6492,33.2686]},"properties":{"id":"way/744431833","name":"Oita Power Plant","fuel":"gas","mw":655}},
{"type":"Feature","geometry":{"type":"Point","coordinates":[140.6881,35.9035]},"properties":{"id":"way/1074674001","name":"Kashima Kita Power Plant","fuel":"otherThermal","mw":650}},
{"type":"Feature","geometry":{"type":"Point","coordinates":[140.6169,36.4371]},"properties":{"id":"way/1074675399","name":"Hitachinaka Joint Generation power station","fuel":"coal","mw":650}},
{"type":"Feature","geometry":{"type":"Point","coordinates":[137.7196,36.1328]},"properties":{"id":"way/727005862","name":"安曇水力発電所","fuel":"hydro","mw":623}},
{"type":"Feature","geometry":{"type":"Point","coordinates":[133.7275,34.515]},"properties":{"id":"way/605687584","name":"倉敷共同発電所","fuel":"otherThermal","mw":614}},
{"type":"Feature","geometry":{"type":"Point","coordinates":[130.1105,33.3396]},"properties":{"id":"way/233522781","name":"Tenzan Pumped Storage Power Plant","fuel":"hydro","mw":600}},
{"type":"Feature","geometry":{"type":"Point","coordinates":[136.6465,34.9745]},"properties":{"id":"way/615204119","name":"Yokkaichi CCGT Power Station","fuel":"gas","mw":585}},
{"type":"Feature","geometry":{"type":"Point","coordinates":[131.003,34.002]},"properties":{"id":"way/217680223","name":"Shimonoseki Thermal Power Plant","fuel":"coal","mw":575}},
{"type":"Feature","geometry":{"type":"Point","coordinates":[141.2753,43.1936]},"properties":{"id":"way/931796255","name":"Ishikariwan Shinko power station","fuel":"gas","mw":569.4}},
{"type":"Feature","geometry":{"type":"Point","coordinates":[135.4303,34.5469]},"properties":{"id":"relation/19446982","name":"Senboku Natural Gas Power Plant","fuel":"gas","mw":555}},
{"type":"Feature","geometry":{"type":"Point","coordinates":[135.4034,34.5422]},"properties":{"id":"way/619500784","name":"Senboku Natural Gas Power Plant","fuel":"gas","mw":554}},
{"type":"Feature","geometry":{"type":"Point","coordinates":[141.0163,37.239]},"properties":{"id":"way/1148367832","name":"Hirono IGCC Power Plant","fuel":"coal","mw":543}},
{"type":"Feature","geometry":{"type":"Point","coordinates":[127.8129,26.2764]},"properties":{"id":"way/931858690","name":"Yoshinoura Power Plant","fuel":"gas","mw":537}},
{"type":"Feature","geometry":{"type":"Point","coordinates":[140.8196,36.9144]},"properties":{"id":"way/1148368554","name":"Nakoso IGCC Power Plant","fuel":"coal","mw":525}},
{"type":"Feature","geometry":{"type":"Point","coordinates":[131.1191,33.6261]},"properties":{"id":"way/216809817","name":"Buzen Thermal Power Plant","fuel":"otherThermal","mw":503.6}},
{"type":"Feature","geometry":{"type":"Point","coordinates":[130.7044,32.4242]},"properties":{"id":"way/216499699","name":"大平水力発電所","fuel":"hydro","mw":500}},
{"type":"Feature","geometry":{"type":"Point","coordinates":[134.7664,34.7537]},"properties":{"id":"way/605382256","name":"Takasago J-Power Power Plant","fuel":"coal","mw":500}},
{"type":"Feature","geometry":{"type":"Point","coordinates":[139.7179,35.4831]},"properties":{"id":"way/619569840","name":"JFE扇島火力発電所","fuel":"gas","mw":494.5}},
{"type":"Feature","geometry":{"type":"Point","coordinates":[135.8592,34.894]},"properties":{"id":"relation/12905117","name":"喜撰山発電所","fuel":"hydro","mw":466}},
{"type":"Feature","geometry":{"type":"Point","coordinates":[131.7935,34.0355]},"properties":{"id":"way/935108321","name":"Tokuyama Shunan Power East Power Plant","fuel":"renewables","mw":445}},
{"type":"Feature","geometry":{"type":"Point","coordinates":[141.5084,40.5344]},"properties":{"id":"way/638460848","name":"Hachinohe Thermal Power Plant","fuel":"gas","mw":416}},
{"type":"Feature","geometry":{"type":"Point","coordinates":[133.1684,33.9321]},"properties":{"id":"way/704208234","name":"Saijo Power Plant","fuel":"coal","mw":406}},
{"type":"Feature","geometry":{"type":"Point","coordinates":[140.9694,42.9386]},"properties":{"id":"way/640622567","name":"京極発電所","fuel":"hydro","mw":400}},
{"type":"Feature","geometry":{"type":"Point","coordinates":[135.1211,34.2463]},"properties":{"id":"way/937829033","name":"Wakayama Gas power plant","fuel":"gas","mw":379}},
{"type":"Feature","geometry":{"type":"Point","coordinates":[131.7906,34.0598]},"properties":{"id":"way/1172266747","name":"Tokuyama Central Power Plant","fuel":"coal","mw":372}},
{"type":"Feature","geometry":{"type":"Point","coordinates":[130.9971,33.7878]},"properties":{"id":"relation/12343855","name":"Karita Kanda Power Plant","fuel":"coal","mw":360}},
{"type":"Feature","geometry":{"type":"Point","coordinates":[127.8406,26.4288]},"properties":{"id":"way/779971075","name":"Ishikawa Thermal Power Plant","fuel":"otherThermal","mw":353}},
{"type":"Feature","geometry":{"type":"Point","coordinates":[137.8057,35.0911]},"properties":{"id":"way/134376414","name":"佐久間発電所","fuel":"hydro","mw":350}},
{"type":"Feature","geometry":{"type":"Point","coordinates":[135.9749,34.0402]},"properties":{"id":"way/217390429","name":"Ikehara Hydroelectric power station","fuel":"hydro","mw":350}},
{"type":"Feature","geometry":{"type":"Point","coordinates":[137.6896,36.6449]},"properties":{"id":"way/761185975","name":"Kurobegawa Powerstation #4","fuel":"hydro","mw":335}},
{"type":"Feature","geometry":{"type":"Point","coordinates":[140.6997,35.8866]},"properties":{"id":"way/619284824","name":"Kashima Minami Power Plant","fuel":"gas","mw":318.6}},
{"type":"Feature","geometry":{"type":"Point","coordinates":[127.8413,26.4317]},"properties":{"id":"way/1163447281","name":"Ishikawa J-Power Coal Power Plant","fuel":"coal","mw":312}},
{"type":"Feature","geometry":{"type":"Point","coordinates":[135.9853,35.7391]},"properties":{"id":"way/771787166","name":"Monju Nuclear Power Plant","fuel":"nuclear","mw":280}},
{"type":"Feature","geometry":{"type":"Point","coordinates":[139.7458,35.5141]},"properties":{"id":"way/1100962066","name":"Genex Mizue Power Plant","fuel":"gas","mw":276}},
{"type":"Feature","geometry":{"type":"Point","coordinates":[138.262,37.982]},"properties":{"id":"way/682411432","name":"東北電力 相川火力発電所","fuel":"otherThermal","mw":275}},
{"type":"Feature","geometry":{"type":"Point","coordinates":[132.8725,34.2595]},"properties":{"id":"way/605420890","name":"Osaki CoolGen Power Plant","fuel":"coal","mw":259}},
{"type":"Feature","geometry":{"type":"Point","coordinates":[132.8732,34.2587]},"properties":{"id":"way/1241190300","name":"Osaki power station","fuel":"coal","mw":259}},
{"type":"Feature","geometry":{"type":"Point","coordinates":[139.2741,35.6041]},"properties":{"id":"way/246750093","name":"城山水力発電所","fuel":"hydro","mw":250}},
{"type":"Feature","geometry":{"type":"Point","coordinates":[137.2156,36.7577]},"properties":{"id":"way/339231657","name":"Toyama Thermal Power Station","fuel":"otherThermal","mw":250}},
{"type":"Feature","geometry":{"type":"Point","coordinates":[141.8901,43.4648]},"properties":{"id":"way/605433850","name":"Sunagawa Daini Power Plant","fuel":"coal","mw":250}},
{"type":"Feature","geometry":{"type":"Point","coordinates":[136.1322,36.2078]},"properties":{"id":"way/643561003","name":"Fukui Mikuni Thermal Power Plant","fuel":"otherThermal","mw":250}},
{"type":"Feature","geometry":{"type":"Point","coordinates":[141.6597,42.6383]},"properties":{"id":"way/676665815","name":"Tomakomai Power Plant","fuel":"gas","mw":250}},
{"type":"Feature","geometry":{"type":"Point","coordinates":[137.7478,36.1547]},"properties":{"id":"way/787208208","name":"水殿水力発電所","fuel":"hydro","mw":245}},
{"type":"Feature","geometry":{"type":"Point","coordinates":[134.1559,34.6387]},"properties":{"id":"relation/9172397","name":"Setouchi Kirei Solar Farm","fuel":"solar","mw":235}},
{"type":"Feature","geometry":{"type":"Point","coordinates":[136.6639,34.98]},"properties":{"id":"way/704198315","name":"Cosmo Oil Yokkaichi Kasumi Power Plant","fuel":"otherThermal","mw":230}},
{"type":"Feature","geometry":{"type":"Point","coordinates":[140.3799,36.5391]},"properties":{"id":"way/926402862","name":"Hitachi Zosen Ibaraki Power Plant","fuel":"gas","mw":225.8}},
{"type":"Feature","geometry":{"type":"Point","coordinates":[136.6874,35.8927]},"properties":{"id":"way/1136534571","name":"Nagano hydro power station","fuel":"hydro","mw":220}},
{"type":"Feature","geometry":{"type":"Point","coordinates":[136.9093,36.1404]},"properties":{"id":"way/440218167","name":"御母衣水力発電所","fuel":"hydro","mw":215}},
{"type":"Feature","geometry":{"type":"Point","coordinates":[138.809,37.2939]},"properties":{"id":"way/658690610","name":"Ojiya No.2/Shin-Ojiya hydro power station","fuel":"hydro","mw":206}},
{"type":"Feature","geometry":{"type":"Point","coordinates":[142.634,42.456]},"properties":{"id":"way/414985496","name":"高見発電所","fuel":"hydro","mw":200}},
{"type":"Feature","geometry":{"type":"Point","coordinates":[142.5549,42.6055]},"properties":{"id":"way/624384691","name":"新冠発電所","fuel":"hydro","mw":200}},
{"type":"Feature","geometry":{"type":"Point","coordinates":[138.683,37.0538]},"properties":{"id":"way/319098734","name":"Shinanogawa hydro power station","fuel":"hydro","mw":181}},
{"type":"Feature","geometry":{"type":"Point","coordinates":[131.3239,32.1947]},"properties":{"id":"way/231759891","name":"Hitotsu'se Hydro Power Station","fuel":"hydro","mw":180}},
{"type":"Feature","geometry":{"type":"Point","coordinates":[130.4209,33.0084]},"properties":{"id":"way/244325778","name":"Sigma Power Ariake Miike Thermal Power Station","fuel":"coal","mw":175}},
{"type":"Feature","geometry":{"type":"Point","coordinates":[143.9381,42.8985]},"properties":{"id":"way/427397666","name":"Onbetsu Power Plant","fuel":"gas","mw":148}},
{"type":"Feature","geometry":{"type":"Point","coordinates":[137.3164,34.7235]},"properties":{"id":"way/605420893","name":"Toyohashi Akemi Power Plant","fuel":"coal","mw":147}},
{"type":"Feature","geometry":{"type":"Point","coordinates":[135.4241,34.6791]},"properties":{"id":"way/1131765186","name":"Torishima Energy Center Power Plant","fuel":"gas","mw":140.5}},
{"type":"Feature","geometry":{"type":"Point","coordinates":[139.7131,36.8303]},"properties":{"id":"way/1154169960","name":"鬼怒川発電所","fuel":"hydro","mw":127}},
{"type":"Feature","geometry":{"type":"Point","coordinates":[138.6593,36.9456]},"properties":{"id":"relation/15402384","name":"Nakatsugawa-daiichi hydro power station","fuel":"hydro","mw":127}},
{"type":"Feature","geometry":{"type":"Point","coordinates":[138.8068,37.2944]},"properties":{"id":"way/658678499","name":"Ojiya Hydro Power Station","fuel":"hydro","mw":123}},
{"type":"Feature","geometry":{"type":"Point","coordinates":[140.3155,40.8917]},"properties":{"id":"relation/11155448","name":"ウィンドファームつがる","fuel":"wind","mw":121.6}},
{"type":"Feature","geometry":{"type":"Point","coordinates":[130.4939,31.9876]},"properties":{"id":"way/240809426","name":"Sendai River No1 Hydro Power Station","fuel":"hydro","mw":120}},
{"type":"Feature","geometry":{"type":"Point","coordinates":[138.7447,37.1576]},"properties":{"id":"way/544385597","name":"Senju Hydro Power Station","fuel":"hydro","mw":120}},
{"type":"Feature","geometry":{"type":"Point","coordinates":[130.9905,33.8001]},"properties":{"id":"way/1203475017","name":"Mitsubishi Materials Kyushu Plant power station","fuel":"coal","mw":115}},
{"type":"Feature","geometry":{"type":"Point","coordinates":[140.7037,35.908]},"properties":{"id":"way/754094565","name":"Kamisu Power Plant","fuel":"coal","mw":112}},
{"type":"Feature","geometry":{"type":"Point","coordinates":[144.4052,42.9608]},"properties":{"id":"way/1090803890","name":"Kushiro Power Plant","fuel":"coal","mw":112}},
{"type":"Feature","geometry":{"type":"Point","coordinates":[132.5248,34.3648]},"properties":{"id":"way/1203481634","name":"Kaita power station","fuel":"coal","mw":112}},
{"type":"Feature","geometry":{"type":"Point","coordinates":[135.4648,33.7311]},"properties":{"id":"relation/15426066","name":"和歌山メガソーラー発電所","fuel":"solar","mw":111.1}},
{"type":"Feature","geometry":{"type":"Point","coordinates":[131.1874,33.1052]},"properties":{"id":"way/216617624","name":"八丁原地熱発電所","fuel":"renewables","mw":110}},
{"type":"Feature","geometry":{"type":"Point","coordinates":[140.526,36.4739]},"properties":{"id":"way/1078429703","name":"那珂瓦斯発電所","fuel":"gas","mw":110}},
{"type":"Feature","geometry":{"type":"Point","coordinates":[139.9821,35.4541]},"properties":{"id":"way/1133603221","name":"Shinnakasode Power Plant","fuel":"gas","mw":110}},
{"type":"Feature","geometry":{"type":"Point","coordinates":[140.0938,35.5445]},"properties":{"id":"way/1133676170","name":"Ichihara Power Co. Power Plant","fuel":"gas","mw":110}},
{"type":"Feature","geometry":{"type":"Point","coordinates":[139.9635,35.4513]},"properties":{"id":"way/943646268","name":"Nihon Techno Sodegaura Green power station","fuel":"gas","mw":109.2}},
{"type":"Feature","geometry":{"type":"Point","coordinates":[139.0811,37.9461]},"properties":{"id":"way/418520712","name":"Niigata Thermal Power Station","fuel":"gas","mw":109}},
{"type":"Feature","geometry":{"type":"Point","coordinates":[140.0458,35.5239]},"properties":{"id":"way/1444382011","name":"Ishihara Bayside Energy power station","fuel":"gas","mw":107.7}},
{"type":"Feature","geometry":{"type":"Point","coordinates":[139.9762,35.4708]},"properties":{"id":"way/1092461703","name":"東京ガスベイパワー","fuel":"gas","mw":102.9}},
{"type":"Feature","geometry":{"type":"Point","coordinates":[140.2683,42.3011]},"properties":{"id":"relation/11816417","name":"SoftBank Yakumo Solar Park","fuel":"solar","mw":102.3}},
{"type":"Feature","geometry":{"type":"Point","coordinates":[134.2894,34.8867]},"properties":{"id":"way/717874701","name":"赤穂メガソーラー発電所","fuel":"solar","mw":102.1}},
{"type":"Feature","geometry":{"type":"Point","coordinates":[134.3646,34.753]},"properties":{"id":"way/967612669","name":"SOC Ako Cement Power Station","fuel":"coal","mw":102}},
{"type":"Feature","geometry":{"type":"Point","coordinates":[137.8468,35.276]},"properties":{"id":"way/680656042","name":"平岡発電所","fuel":"hydro","mw":101}},
{"type":"Feature","geometry":{"type":"Point","coordinates":[138.7147,35.1436]},"properties":{"id":"way/917145638","name":"Suzukawa Power Station","fuel":"coal","mw":100}},
{"type":"Feature","geometry":{"type":"Point","coordinates":[139.9808,35.4541]},"properties":{"id":"way/1198135329","name":"Nakasode Clean power station","fuel":"gas","mw":100}},
{"type":"Feature","geometry":{"type":"Point","coordinates":[135.8263,34.8813]},"properties":{"id":"way/959861335","name":"天ヶ瀬発電所","fuel":"hydro","mw":92}},
{"type":"Feature","geometry":{"type":"Point","coordinates":[131.1732,32.4747]},"properties":{"id":"way/231877019","name":"Kami'shiba Hydro Power Station","fuel":"hydro","mw":90}},
{"type":"Feature","geometry":{"type":"Point","coordinates":[137.6588,36.6959]},"properties":{"id":"way/197821462","name":"Kurobegawa Powerstation #3","fuel":"hydro","mw":81}},
{"type":"Feature","geometry":{"type":"Point","coordinates":[141.4255,40.2937]},"properties":{"id":"relation/10996024","name":"軽米東ソーラー発電所","fuel":"solar","mw":80.8}},
{"type":"Feature","geometry":{"type":"Point","coordinates":[140.864,39.8287]},"properties":{"id":"way/781791671","name":"葛根田地熱発電所","fuel":"renewables","mw":80}},
{"type":"Feature","geometry":{"type":"Point","coordinates":[144.3507,43.0079]},"properties":{"id":"way/1213460250","name":"Nippon Paper Industries Kushiro Mill IPP Power Station","fuel":"coal","mw":80}},
{"type":"Feature","geometry":{"type":"Point","coordinates":[139.0303,36.4783]},"properties":{"id":"way/1083407777","name":"佐久発電所","fuel":"hydro","mw":76.8}},
{"type":"Feature","geometry":{"type":"Point","coordinates":[141.0053,38.2566]},"properties":{"id":"way/1257694884","name":"Morino Miyako Biomass Power Plant","fuel":"renewables","mw":75}},
{"type":"Feature","geometry":{"type":"Point","coordinates":[141.6971,42.6451]},"properties":{"id":"way/1477837533","name":"勇払バイオマス発電","fuel":"renewables","mw":75}},
{"type":"Feature","geometry":{"type":"Point","coordinates":[132.235,34.2245]},"properties":{"id":"way/1159802647","name":"Mitsubishi Chemical Hiroshima Factory Power Plant","fuel":"coal","mw":73}},
{"type":"Feature","geometry":{"type":"Point","coordinates":[130.5258,31.4669]},"properties":{"id":"way/245833399","name":"Kagoshima Nanatsujima Mega-Solar Power Plant","fuel":"solar","mw":70}},
{"type":"Feature","geometry":{"type":"Point","coordinates":[136.4551,35.5922]},"properties":{"id":"way/1001441701","name":"Yokoyama hydro power station","fuel":"hydro","mw":70}},
{"type":"Feature","geometry":{"type":"Point","coordinates":[139.6941,37.4399]},"properties":{"id":"way/246587757","name":"柳津西山地熱発電所","fuel":"renewables","mw":65}},
{"type":"Feature","geometry":{"type":"Point","coordinates":[141.808,42.7048]},"properties":{"id":"relation/18593616","name":"テラスエナジー苫東安平ソーラーパーク2","fuel":"solar","mw":64.6}},
{"type":"Feature","geometry":{"type":"Point","coordinates":[130.8853,33.3044]},"properties":{"id":"way/182188312","name":"柳又水力発電所","fuel":"hydro","mw":63.8}},
{"type":"Feature","geometry":{"type":"Point","coordinates":[140.0028,37.5439]},"properties":{"id":"way/231804783","name":"Inawashiro-daiichi hydro power station","fuel":"hydro","mw":63.4}},
{"type":"Feature","geometry":{"type":"Point","coordinates":[138.936,36.3094]},"properties":{"id":"way/913333457","name":"安中市太陽光発電所","fuel":"solar","mw":63.2}},
{"type":"Feature","geometry":{"type":"Point","coordinates":[131.3252,32.5098]},"properties":{"id":"way/756614585","name":"塚原発電所","fuel":"hydro","mw":62.6}},
{"type":"Feature","geometry":{"type":"Point","coordinates":[139.566,37.6979]},"properties":{"id":"way/1135958550","name":"Toyomi 1 Hydro Power Plant","fuel":"hydro","mw":61.8}},
{"type":"Feature","geometry":{"type":"Point","coordinates":[141.3584,40.9265]},"properties":{"id":"way/736714087","name":"ユーラス六ヶ所ソーラーパーク 鷹架","fuel":"solar","mw":60}},
{"type":"Feature","geometry":{"type":"Point","coordinates":[140.5877,36.6809]},"properties":{"id":"way/384530856","name":"日立十王太陽光発電所","fuel":"solar","mw":55.6}},
{"type":"Feature","geometry":{"type":"Point","coordinates":[131.1335,31.9194]},"properties":{"id":"way/738402106","name":"大淀川第一発電所","fuel":"hydro","mw":55.5}},
{"type":"Feature","geometry":{"type":"Point","coordinates":[131.2479,31.9362]},"properties":{"id":"way/756361520","name":"大淀川第二水力発電所","fuel":"hydro","mw":55.5}},
{"type":"Feature","geometry":{"type":"Point","coordinates":[141.281,40.8978]},"properties":{"id":"relation/10175737","name":"ユーラス六ヶ所ソーラーパーク 千歳平北","fuel":"solar","mw":55}},
{"type":"Feature","geometry":{"type":"Point","coordinates":[139.5114,36.3806]},"properties":{"id":"way/425953650","name":"パシフィコ・エナジー佐野メガソーラー発電所","fuel":"solar","mw":53.9}},
{"type":"Feature","geometry":{"type":"Point","coordinates":[140.708,35.9066]},"properties":{"id":"way/1074674671","name":"大林神栖バイオマス発電所","fuel":"renewables","mw":51.5}},
{"type":"Feature","geometry":{"type":"Point","coordinates":[141.2931,40.96]},"properties":{"id":"relation/10175736","name":"上北六ヶ所太陽光発電所","fuel":"solar","mw":51}},
{"type":"Feature","geometry":{"type":"Point","coordinates":[141.3152,40.9943]},"properties":{"id":"relation/11246502","name":"二又風力発電所","fuel":"wind","mw":51}},
{"type":"Feature","geometry":{"type":"Point","coordinates":[137.2576,35.9534]},"properties":{"id":"way/370717459","name":"","fuel":"hydro","mw":50.1}},
{"type":"Feature","geometry":{"type":"Point","coordinates":[131.2438,32.4903]},"properties":{"id":"way/233593790","name":"Iwayado Hydro Power Station","fuel":"hydro","mw":50}},
{"type":"Feature","geometry":{"type":"Point","coordinates":[143.3674,44.3359]},"properties":{"id":"way/359839715","name":"Mombetsu power station","fuel":"renewables","mw":50}},
{"type":"Feature","geometry":{"type":"Point","coordinates":[131.3513,32.5064]},"properties":{"id":"way/756620089","name":"諸塚水力発電所","fuel":"hydro","mw":50}},
{"type":"Feature","geometry":{"type":"Point","coordinates":[140.7818,39.9813]},"properties":{"id":"way/781269102","name":"澄川地熱発電所","fuel":"renewables","mw":50}},
{"type":"Feature","geometry":{"type":"Point","coordinates":[141.2362,40.9603]},"properties":{"id":"relation/8485833","name":"Eurus Noheji Wind Farm","fuel":"wind","mw":50}},
{"type":"Feature","geometry":{"type":"Point","coordinates":[140.094,35.5473]},"properties":{"id":"way/1133676169","name":"市原バイオマス発電所","fuel":"renewables","mw":49.9}},
{"type":"Feature","geometry":{"type":"Point","coordinates":[138.6113,35.1209]},"properties":{"id":"way/1330053602","name":"富士川第二発電所","fuel":"hydro","mw":49.5}},
{"type":"Feature","geometry":{"type":"Point","coordinates":[136.6479,34.9749]},"properties":{"id":"way/1431390504","name":"Yokkaichi Biomass Power Plant","fuel":"renewables","mw":49}},
{"type":"Feature","geometry":{"type":"Point","coordinates":[141.4128,40.295]},"properties":{"id":"relation/10996025","name":"軽米西ソーラー発電所","fuel":"solar","mw":48}},
{"type":"Feature","geometry":{"type":"Point","coordinates":[130.4217,33.0201]},"properties":{"id":"way/244326933","name":"Sigma Power Ariake Mikawa Thermal Power Station","fuel":"coal","mw":47.5}},
{"type":"Feature","geometry":{"type":"Point","coordinates":[140.211,36.6543]},"properties":{"id":"way/424722369","name":"那須烏山メガソーラー発電所","fuel":"solar","mw":47.5}},
{"type":"Feature","geometry":{"type":"Point","coordinates":[142.5661,42.413]},"properties":{"id":"way/624384677","name":"静内発電所","fuel":"hydro","mw":46.7}},
{"type":"Feature","geometry":{"type":"Point","coordinates":[139.0602,36.8667]},"properties":{"id":"way/1087224016","name":"須田貝発電所","fuel":"hydro","mw":46.2}},
{"type":"Feature","geometry":{"type":"Point","coordinates":[138.4331,38.1151]},"properties":{"id":"way/364054802","name":"東北電力（株）両津火力発電所","fuel":"otherThermal","mw":45}},
{"type":"Feature","geometry":{"type":"Point","coordinates":[143.2556,43.3608]},"properties":{"id":"way/992507841","name":"Nukabira Power Station","fuel":"hydro","mw":44.2}},
{"type":"Feature","geometry":{"type":"Point","coordinates":[142.5944,42.6785]},"properties":{"id":"way/624385337","name":"奥新冠発電所","fuel":"hydro","mw":44}},
{"type":"Feature","geometry":{"type":"Point","coordinates":[140.0958,35.5457]},"properties":{"id":"way/1133676171","name":"市原火力発電所","fuel":"renewables","mw":43.8}},
{"type":"Feature","geometry":{"type":"Point","coordinates":[139.8946,35.2448]},"properties":{"id":"way/724212325","name":"グリーンパワー富津太陽光発電所","fuel":"solar","mw":42.2}},
{"type":"Feature","geometry":{"type":"Point","coordinates":[139.1002,35.6194]},"properties":{"id":"way/1081219738","name":"八ツ沢発電所","fuel":"hydro","mw":42}},
{"type":"Feature","geometry":{"type":"Point","coordinates":[138.5094,35.2381]},"properties":{"id":"way/1377190872","name":"富士川第一発電所","fuel":"hydro","mw":42}},
{"type":"Feature","geometry":{"type":"Point","coordinates":[142.9252,43.3617]},"properties":{"id":"way/624381023","name":"Tomimura Substation","fuel":"hydro","mw":41.3}},
{"type":"Feature","geometry":{"type":"Point","coordinates":[137.5917,36.8036]},"properties":{"id":"way/197810111","name":"新柳河原発電所","fuel":"hydro","mw":41.2}},
{"type":"Feature","geometry":{"type":"Point","coordinates":[140.7969,37.9823]},"properties":{"id":"way/1308983469","name":"H.I.S. Kakuda Biomass Park","fuel":"gas","mw":41.1}},
{"type":"Feature","geometry":{"type":"Point","coordinates":[140.375,36.606]},"properties":{"id":"way/427034513","name":"常陸大宮太陽光発電所","fuel":"solar","mw":41}},
{"type":"Feature","geometry":{"type":"Point","coordinates":[131.3746,32.4764]},"properties":{"id":"way/756629684","name":"山須原発電所","fuel":"hydro","mw":41}},
{"type":"Feature","geometry":{"type":"Point","coordinates":[141.2416,39.8022]},"properties":{"id":"way/781797980","name":"岩洞第一発電所","fuel":"hydro","mw":41}},
{"type":"Feature","geometry":{"type":"Point","coordinates":[139.9766,36.7795]},"properties":{"id":"way/1228412247","name":"NRE矢板太陽光発電所","fuel":"solar","mw":41}},
{"type":"Feature","geometry":{"type":"Point","coordinates":[139.8961,35.2367]},"properties":{"id":"way/724212327","name":"富津ソーラー","fuel":"solar","mw":40.4}},
{"type":"Feature","geometry":{"type":"Point","coordinates":[141.5267,40.284]},"properties":{"id":"way/925790301","name":"軽米尊坊ソーラー発電所","fuel":"solar","mw":40}},
{"type":"Feature","geometry":{"type":"Point","coordinates":[140.7072,35.9077]},"properties":{"id":"way/1081326553","name":"神栖パワープラント","fuel":"renewables","mw":38.9}},
{"type":"Feature","geometry":{"type":"Point","coordinates":[139.7348,37.6112]},"properties":{"id":"node/10727120352","name":"第二新郷水力発電所","fuel":"hydro","mw":38.8}},
{"type":"Feature","geometry":{"type":"Point","coordinates":[139.9842,37.5526]},"properties":{"id":"way/227893689","name":"Inawashiro-daini hydro power station","fuel":"hydro","mw":37.5}},
{"type":"Feature","geometry":{"type":"Point","coordinates":[139.2978,36.4661]},"properties":{"id":"way/1074099245","name":"小平発電所","fuel":"hydro","mw":36.2}},
{"type":"Feature","geometry":{"type":"Point","coordinates":[139.7644,36.7785]},"properties":{"id":"way/1133340606","name":"鬼怒川森林太陽光発電事業所","fuel":"solar","mw":35.1}},
{"type":"Feature","geometry":{"type":"Point","coordinates":[140.0646,36.1639]},"properties":{"id":"way/1074397763","name":"SJソーラーつくば発電所","fuel":"solar","mw":35}},
{"type":"Feature","geometry":{"type":"Point","coordinates":[135.8119,34.8909]},"properties":{"id":"way/608011054","name":"宇治発電所","fuel":"hydro","mw":32.5}},
{"type":"Feature","geometry":{"type":"Point","coordinates":[141.4239,41.3818]},"properties":{"id":"relation/11159663","name":"ユーラス岩屋ウインドファーム","fuel":"wind","mw":32.5}},
{"type":"Feature","geometry":{"type":"Point","coordinates":[135.8597,34.9159]},"properties":{"id":"relation/12905116","name":"宇治発電所","fuel":"hydro","mw":32.5}},
{"type":"Feature","geometry":{"type":"Point","coordinates":[140.2755,35.1613]},"properties":{"id":"way/1132608639","name":"勝浦植野メガソーラー発電所","fuel":"solar","mw":32.2}},
{"type":"Feature","geometry":{"type":"Point","coordinates":[141.2412,40.9757]},"properties":{"id":"relation/11246501","name":"横浜町雲雀平風力発電所","fuel":"wind","mw":32.2}},
{"type":"Feature","geometry":{"type":"Point","coordinates":[137.7955,36.1809]},"properties":{"id":"way/377300642","name":"竜島発電所","fuel":"hydro","mw":32}},
{"type":"Feature","geometry":{"type":"Point","coordinates":[130.634,30.3154]},"properties":{"id":"way/1164151599","name":"安房川第二発電所","fuel":"hydro","mw":32}},
{"type":"Feature","geometry":{"type":"Point","coordinates":[140.7058,39.6884]},"properties":{"id":"way/293797364","name":"生保内発電所","fuel":"hydro","mw":31.5}},
{"type":"Feature","geometry":{"type":"Point","coordinates":[141.298,40.9586]},"properties":{"id":"relation/8485832","name":"むつ小川原ウインドファーム","fuel":"wind","mw":31.5}},
{"type":"Feature","geometry":{"type":"Point","coordinates":[140.5656,36.6719]},"properties":{"id":"way/384529962","name":"KEN里美太陽光発電所","fuel":"solar","mw":31.2}},
{"type":"Feature","geometry":{"type":"Point","coordinates":[140.9747,40.5708]},"properties":{"id":"way/560071551","name":"十和田発電所","fuel":"hydro","mw":31.1}},
{"type":"Feature","geometry":{"type":"Point","coordinates":[139.1966,35.616]},"properties":{"id":"way/183516732","name":"神奈川県企業庁 相模発電所","fuel":"hydro","mw":31}},
{"type":"Feature","geometry":{"type":"Point","coordinates":[130.7999,31.9337]},"properties":{"id":"way/233581412","name":"Ogiri GeoThermal Power Plant","fuel":"renewables","mw":30}},
{"type":"Feature","geometry":{"type":"Point","coordinates":[130.6146,31.1906]},"properties":{"id":"way/365364002","name":"山川発電所","fuel":"renewables","mw":30}},
{"type":"Feature","geometry":{"type":"Point","coordinates":[144.1846,42.9935]},"properties":{"id":"way/425690872","name":"白糠太陽光発電所","fuel":"solar","mw":30}},
{"type":"Feature","geometry":{"type":"Point","coordinates":[141.2841,40.9902]},"properties":{"id":"relation/11246503","name":"六ヶ所村風力発電所","fuel":"wind","mw":30}},
{"type":"Feature","geometry":{"type":"Point","coordinates":[141.7246,42.6618]},"properties":{"id":"relation/12630947","name":"とまこまい勇払メガソーラー発電所","fuel":"solar","mw":29.8}},
{"type":"Feature","geometry":{"type":"Point","coordinates":[135.0995,34.0886]},"properties":{"id":"way/554179455","name":"関西電力 有田太陽光発電所","fuel":"solar","mw":29.7}},
{"type":"Feature","geometry":{"type":"Point","coordinates":[130.9742,33.2942]},"properties":{"id":"way/216619528","name":"Onagohata Hydroelectric Power Plant","fuel":"hydro","mw":29}},
{"type":"Feature","geometry":{"type":"Point","coordinates":[140.6039,39.0015]},"properties":{"id":"way/605382254","name":"上の岱地熱発電所","fuel":"renewables","mw":28.8}},
{"type":"Feature","geometry":{"type":"Point","coordinates":[142.5776,42.4761]},"properties":{"id":"way/624384684","name":"春別発電所","fuel":"hydro","mw":28.5}},
{"type":"Feature","geometry":{"type":"Point","coordinates":[142.0982,43.0219]},"properties":{"id":"way/1463456956","name":"Shuparo Power Plant","fuel":"hydro","mw":28.5}},
{"type":"Feature","geometry":{"type":"Point","coordinates":[139.0463,36.603]},"properties":{"id":"way/1083451865","name":"岩本発電所","fuel":"hydro","mw":28.4}},
{"type":"Feature","geometry":{"type":"Point","coordinates":[131.2295,32.0224]},"properties":{"id":"way/756358392","name":"綾第二発電所","fuel":"hydro","mw":28}},
{"type":"Feature","geometry":{"type":"Point","coordinates":[131.273,33.2115]},"properties":{"id":"way/367495700","name":"九州電力 滝上発電所","fuel":"renewables","mw":27.5}},
{"type":"Feature","geometry":{"type":"Point","coordinates":[138.815,36.5623]},"properties":{"id":"way/169963236","name":"原町発電所","fuel":"hydro","mw":27.4}},
{"type":"Feature","geometry":{"type":"Point","coordinates":[143.3943,43.3436]},"properties":{"id":"way/428716213","name":"Meto No. 1 Power Plant","fuel":"hydro","mw":27.4}},
{"type":"Feature","geometry":{"type":"Point","coordinates":[141.1782,40.7754]},"properties":{"id":"way/1030329181","name":"","fuel":"solar","mw":27.4}},
{"type":"Feature","geometry":{"type":"Point","coordinates":[131.4274,32.4484]},"properties":{"id":"way/756631950","name":"西郷発電所","fuel":"hydro","mw":27.1}},
{"type":"Feature","geometry":{"type":"Point","coordinates":[139.5204,36.8739]},"properties":{"id":"way/1154150987","name":"川俣発電所","fuel":"hydro","mw":27}},
{"type":"Feature","geometry":{"type":"Point","coordinates":[140.9381,38.1579]},"properties":{"id":"relation/20440490","name":"Natori Solarway","fuel":"solar","mw":26.3}},
{"type":"Feature","geometry":{"type":"Point","coordinates":[139.9556,36.9374]},"properties":{"id":"way/705035598","name":"那須塩原ソーラー","fuel":"solar","mw":26.2}},
{"type":"Feature","geometry":{"type":"Point","coordinates":[142.4674,42.8932]},"properties":{"id":"way/625060010","name":"","fuel":"hydro","mw":25.6}},
{"type":"Feature","geometry":{"type":"Point","coordinates":[139.9532,40.0856]},"properties":{"id":"relation/8423628","name":"Hachiryu wind farm","fuel":"wind","mw":25.5}},
{"type":"Feature","geometry":{"type":"Point","coordinates":[138.7331,36.5717]},"properties":{"id":"way/192361576","name":"松谷発電所","fuel":"hydro","mw":25.4}},
{"type":"Feature","geometry":{"type":"Point","coordinates":[140.1697,36.9206]},"properties":{"id":"way/1074149095","name":"SGET大田原メガソーラー","fuel":"solar","mw":25.1}},
{"type":"Feature","geometry":{"type":"Point","coordinates":[130.4179,33.6398]},"properties":{"id":"way/292007462","name":"","fuel":"otherThermal","mw":25}},
{"type":"Feature","geometry":{"type":"Point","coordinates":[143.5436,43.1199]},"properties":{"id":"way/427824309","name":"Honbetsu Power Station","fuel":"hydro","mw":25}},
{"type":"Feature","geometry":{"type":"Point","coordinates":[142.4409,43.1313]},"properties":{"id":"way/625054529","name":"","fuel":"hydro","mw":25}},
{"type":"Feature","geometry":{"type":"Point","coordinates":[131.1734,32.084]},"properties":{"id":"way/756364313","name":"綾第一発電所","fuel":"hydro","mw":25}},
{"type":"Feature","geometry":{"type":"Point","coordinates":[141.5893,42.6362]},"properties":{"id":"way/944376326","name":"Oji paper Co.,Ltd.Tomakomai Mill Power Station","fuel":"coal","mw":25}},
{"type":"Feature","geometry":{"type":"Point","coordinates":[141.6738,40.2216]},"properties":{"id":"way/1020259196","name":"Hirono Solar Power Plant","fuel":"solar","mw":25}},
{"type":"Feature","geometry":{"type":"Point","coordinates":[140.7135,36.7031]},"properties":{"id":"way/1150634623","name":"高萩安良川太陽光発電所","fuel":"solar","mw":25}},
{"type":"Feature","geometry":{"type":"Point","coordinates":[138.9249,36.5475]},"properties":{"id":"way/1084990395","name":"箱島発電所","fuel":"hydro","mw":24.8}},
{"type":"Feature","geometry":{"type":"Point","coordinates":[139.251,35.5411]},"properties":{"id":"way/310770675","name":"愛川第1発電所","fuel":"hydro","mw":24.2}},
{"type":"Feature","geometry":{"type":"Point","coordinates":[129.7779,33.7794]},"properties":{"id":"way/220708803","name":"New Iki Thermal Power Station","fuel":"otherThermal","mw":24}},
{"type":"Feature","geometry":{"type":"Point","coordinates":[140.9212,39.8719]},"properties":{"id":"way/732494200","name":"Matsukawa Geothermal Plant","fuel":"renewables","mw":23.5}},
{"type":"Feature","geometry":{"type":"Point","coordinates":[140.5858,36.3768]},"properties":{"id":"way/1074453055","name":"エナリスパワー常陸那珂発電所","fuel":"renewables","mw":23.5}},
{"type":"Feature","geometry":{"type":"Point","coordinates":[141.6744,42.6554]},"properties":{"id":"way/432584214","name":"三井不動産 苫小牧太陽光発電所","fuel":"solar","mw":23}},
{"type":"Feature","geometry":{"type":"Point","coordinates":[139.0355,36.804]},"properties":{"id":"way/1087213710","name":"藤原発電所","fuel":"hydro","mw":23}},
{"type":"Feature","geometry":{"type":"Point","coordinates":[135.4131,34.5381]},"properties":{"id":"way/1421234640","name":"大阪メガソーラー発電所","fuel":"solar","mw":22.9}},
{"type":"Feature","geometry":{"type":"Point","coordinates":[131.3814,32.2625]},"properties":{"id":"way/742606366","name":"石河内第一発電所","fuel":"hydro","mw":22.2}},
{"type":"Feature","geometry":{"type":"Point","coordinates":[140.5072,36.1094]},"properties":{"id":"way/1078690277","name":"北浦複合団地太陽光発電所","fuel":"solar","mw":22}},
{"type":"Feature","geometry":{"type":"Point","coordinates":[138.9598,35.6132]},"properties":{"id":"way/1081195849","name":"駒橋発電所","fuel":"hydro","mw":22}},
{"type":"Feature","geometry":{"type":"Point","coordinates":[140.2935,35.1647]},"properties":{"id":"way/1132604647","name":"勝浦串浜太陽光発電所","fuel":"solar","mw":22}},
{"type":"Feature","geometry":{"type":"Point","coordinates":[131.4348,32.1723]},"properties":{"id":"way/755381535","name":"川原発電所","fuel":"hydro","mw":21.6}},
{"type":"Feature","geometry":{"type":"Point","coordinates":[140.3343,36.5967]},"properties":{"id":"way/1140688122","name":"SGET常陸大宮メガソーラー","fuel":"solar","mw":21.2}},
{"type":"Feature","geometry":{"type":"Point","coordinates":[142.7712,42.4735]},"properties":{"id":"way/624386611","name":"東の沢発電所","fuel":"hydro","mw":21}},
{"type":"Feature","geometry":{"type":"Point","coordinates":[142.5698,42.322]},"properties":{"id":"way/1388433508","name":"新ひだかソーラーパーク","fuel":"solar","mw":21}},
{"type":"Feature","geometry":{"type":"Point","coordinates":[140.7243,35.8511]},"properties":{"id":"way/614885771","name":"SGET神栖メガソーラー","fuel":"solar","mw":20.5}},
{"type":"Feature","geometry":{"type":"Point","coordinates":[139.3728,36.5409]},"properties":{"id":"way/1074099242","name":"東発電所","fuel":"hydro","mw":20.3}},
{"type":"Feature","geometry":{"type":"Point","coordinates":[130.8436,31.6522]},"properties":{"id":"way/508842480","name":"鹿児島県霧島市太陽光発電所","fuel":"solar","mw":20}},
{"type":"Feature","geometry":{"type":"Point","coordinates":[142.5358,42.5662]},"properties":{"id":"way/624384688","name":"下新冠発電所","fuel":"hydro","mw":20}},
{"type":"Feature","geometry":{"type":"Point","coordinates":[133.3057,33.8854]},"properties":{"id":"way/1159568846","name":"東平発電所","fuel":"hydro","mw":20}},
{"type":"Feature","geometry":{"type":"Point","coordinates":[141.2916,40.9968]},"properties":{"id":"relation/11246505","name":"吹越台地風力発電所","fuel":"wind","mw":20}},
{"type":"Feature","geometry":{"type":"Point","coordinates":[140.6508,39.6089]},"properties":{"id":"way/473703453","name":"神代発電所","fuel":"hydro","mw":19.7}},
{"type":"Feature","geometry":{"type":"Point","coordinates":[141.1858,40.7808]},"properties":{"id":"way/1030329188","name":"七戸町卒古沢太陽光発電所","fuel":"solar","mw":19.6}},
{"type":"Feature","geometry":{"type":"Point","coordinates":[140.9412,41.5097]},"properties":{"id":"relation/11155418","name":"大間風力発電所","fuel":"wind","mw":19.5}},
{"type":"Feature","geometry":{"type":"Point","coordinates":[141.4295,41.3757]},"properties":{"id":"relation/11159664","name":"ユーラス尻労ウインドファーム","fuel":"wind","mw":19.3}},
{"type":"Feature","geometry":{"type":"Point","coordinates":[139.0914,36.6571]},"properties":{"id":"way/1083451869","name":"上久屋発電所","fuel":"hydro","mw":19}},
{"type":"Feature","geometry":{"type":"Point","coordinates":[138.5389,36.5244]},"properties":{"id":"way/1085004990","name":"西窪発電所","fuel":"hydro","mw":19}},
{"type":"Feature","geometry":{"type":"Point","coordinates":[138.1969,35.418]},"properties":{"id":"way/1354393088","name":"赤石沢発電所","fuel":"hydro","mw":19}},
{"type":"Feature","geometry":{"type":"Point","coordinates":[141.3353,42.5628]},"properties":{"id":"way/434892984","name":"オリックス白老町メガソーラー発電所","fuel":"solar","mw":18.9}},
{"type":"Feature","geometry":{"type":"Point","coordinates":[139.8975,36.6268]},"properties":{"id":"way/501281300","name":"宇都宮北太陽光発電所","fuel":"solar","mw":18.8}},
{"type":"Feature","geometry":{"type":"Point","coordinates":[131.1408,31.9417]},"properties":{"id":"way/758820091","name":"岩瀬川発電所","fuel":"hydro","mw":18.6}},
{"type":"Feature","geometry":{"type":"Point","coordinates":[138.8696,35.5295]},"properties":{"id":"way/277235516","name":"鹿留発電所","fuel":"hydro","mw":18.4}},
{"type":"Feature","geometry":{"type":"Point","coordinates":[141.1236,40.7444]},"properties":{"id":"way/1030329182","name":"","fuel":"solar","mw":18.4}},
{"type":"Feature","geometry":{"type":"Point","coordinates":[131.3988,32.2282]},"properties":{"id":"way/742527746","name":"石河内第二発電所","fuel":"hydro","mw":18}},
{"type":"Feature","geometry":{"type":"Point","coordinates":[141.2076,40.6466]},"properties":{"id":"way/1052431035","name":"","fuel":"solar","mw":18}},
{"type":"Feature","geometry":{"type":"Point","coordinates":[139.809,36.4081]},"properties":{"id":"way/1065369061","name":"壬生発電所","fuel":"renewables","mw":18}},
{"type":"Feature","geometry":{"type":"Point","coordinates":[131.1932,31.4749]},"properties":{"id":"way/1459962557","name":"串間ソーラーヒルズ発電所","fuel":"solar","mw":18}},
{"type":"Feature","geometry":{"type":"Point","coordinates":[141.0019,40.4144]},"properties":{"id":"relation/11159715","name":"新郷村風力発電所","fuel":"wind","mw":18}},
{"type":"Feature","geometry":{"type":"Point","coordinates":[132.4422,34.3584]},"properties":{"id":"way/1334352448","name":"広島市環境局中工場","fuel":"otherThermal","mw":17.6}},
{"type":"Feature","geometry":{"type":"Point","coordinates":[140.6899,40.5984]},"properties":{"id":"way/781539048","name":"浅瀬石川発電所","fuel":"hydro","mw":17.1}},
{"type":"Feature","geometry":{"type":"Point","coordinates":[139.8288,36.428]},"properties":{"id":"way/1065046742","name":"壬生ソーラーウェイ","fuel":"solar","mw":16.8}},
{"type":"Feature","geometry":{"type":"Point","coordinates":[130.7011,31.7418]},"properties":{"id":"way/665218759","name":"メガソーラーパーク霧島隼人発電所","fuel":"solar","mw":16.7}},
{"type":"Feature","geometry":{"type":"Point","coordinates":[139.5718,36.4415]},"properties":{"id":"way/426726219","name":"佐野ソーラーウェイ","fuel":"solar","mw":16.6}},
{"type":"Feature","geometry":{"type":"Point","coordinates":[129.763,33.8009]},"properties":{"id":"way/746208864","name":"芦辺発電所","fuel":"otherThermal","mw":16.5}},
{"type":"Feature","geometry":{"type":"Point","coordinates":[139.1766,35.7994]},"properties":{"id":"way/235321718","name":"東京都交通局 多摩川第三発電所","fuel":"hydro","mw":16.4}},
{"type":"Feature","geometry":{"type":"Point","coordinates":[138.3521,36.3374]},"properties":{"id":"way/252476725","name":"島川原発電所","fuel":"hydro","mw":16.3}},
{"type":"Feature","geometry":{"type":"Point","coordinates":[140.1738,35.5022]},"properties":{"id":"way/1134665294","name":"潤井戸発電所","fuel":"solar","mw":16.3}},
{"type":"Feature","geometry":{"type":"Point","coordinates":[136.7193,36.4588]},"properties":{"id":"way/909940875","name":"Kami-terazu Power Plant","fuel":"hydro","mw":16.2}},
{"type":"Feature","geometry":{"type":"Point","coordinates":[139.9178,37.071]},"properties":{"id":"way/658985754","name":"板室発電所","fuel":"hydro","mw":16.1}},
{"type":"Feature","geometry":{"type":"Point","coordinates":[140.1233,36.7248]},"properties":{"id":"way/424574559","name":"那須南エコファーム太陽光発電所","fuel":"solar","mw":16}},
{"type":"Feature","geometry":{"type":"Point","coordinates":[142.9245,43.1822]},"properties":{"id":"way/624376775","name":"岩松発電所","fuel":"hydro","mw":16}},
{"type":"Feature","geometry":{"type":"Point","coordinates":[131.4816,32.4291]},"properties":{"id":"way/756632328","name":"大内原発電所","fuel":"hydro","mw":16}},
{"type":"Feature","geometry":{"type":"Point","coordinates":[131.3252,32.6814]},"properties":{"id":"way/757949918","name":"水ヶ崎発電所","fuel":"hydro","mw":16}},
{"type":"Feature","geometry":{"type":"Point","coordinates":[142.6101,42.9462]},"properties":{"id":"way/630878676","name":"奥沙流発電所","fuel":"hydro","mw":15.8}},
{"type":"Feature","geometry":{"type":"Point","coordinates":[139.5427,36.7274]},"properties":{"id":"way/708071643","name":"細尾発電所","fuel":"hydro","mw":15.7}},
{"type":"Feature","geometry":{"type":"Point","coordinates":[142.9288,43.0925]},"properties":{"id":"way/624374420","name":"熊牛発電所","fuel":"hydro","mw":15.4}},
{"type":"Feature","geometry":{"type":"Point","coordinates":[139.7013,36.8947]},"properties":{"id":"way/1072931703","name":"川治第一発電所","fuel":"hydro","mw":15.3}},
{"type":"Feature","geometry":{"type":"Point","coordinates":[139.754,35.6095]},"properties":{"id":"way/155497675","name":"Shinagawa Incineration Plant","fuel":"otherThermal","mw":15}},
{"type":"Feature","geometry":{"type":"Point","coordinates":[135.7531,35.089]},"properties":{"id":"way/158362559","name":"京都市東北部クリーンセンター","fuel":"otherThermal","mw":15}},
{"type":"Feature","geometry":{"type":"Point","coordinates":[140.7089,38.8097]},"properties":{"id":"way/605382255","name":"鬼首地熱発電所","fuel":"renewables","mw":15}},
{"type":"Feature","geometry":{"type":"Point","coordinates":[142.5101,42.5119]},"properties":{"id":"way/624384666","name":"岩清水発電所","fuel":"hydro","mw":15}},
{"type":"Feature","geometry":{"type":"Point","coordinates":[139.024,36.1346]},"properties":{"id":"way/1086358975","name":"下久保発電所","fuel":"hydro","mw":15}},
{"type":"Feature","geometry":{"type":"Point","coordinates":[130.7923,33.9465]},"properties":{"id":"relation/9440884","name":"Hibikinada wind farm","fuel":"wind","mw":15}},
{"type":"Feature","geometry":{"type":"Point","coordinates":[138.9129,35.5586]},"properties":{"id":"way/278848766","name":"谷村発電所","fuel":"hydro","mw":14.7}},
{"type":"Feature","geometry":{"type":"Point","coordinates":[131.3908,32.643]},"properties":{"id":"way/757457064","name":"五ヶ瀬川発電所","fuel":"hydro","mw":14.5}},
{"type":"Feature","geometry":{"type":"Point","coordinates":[140.52,35.8649]},"properties":{"id":"way/1028608117","name":"千葉香取メガソーラー発電所","fuel":"solar","mw":14.4}},
{"type":"Feature","geometry":{"type":"Point","coordinates":[140.9548,39.123]},"properties":{"id":"way/482766892","name":"胆沢第一発電所","fuel":"hydro","mw":14.2}},
{"type":"Feature","geometry":{"type":"Point","coordinates":[138.9884,36.5226]},"properties":{"id":"way/1083426824","name":"金井発電所","fuel":"hydro","mw":14.2}},
{"type":"Feature","geometry":{"type":"Point","coordinates":[138.3403,37.983]},"properties":{"id":"way/682349524","name":"双日佐和田火力発電所","fuel":"otherThermal","mw":14}},
{"type":"Feature","geometry":{"type":"Point","coordinates":[140.107,36.907]},"properties":{"id":"way/1074149092","name":"大田原寒井第一太陽光発電所","fuel":"solar","mw":14}},
{"type":"Feature","geometry":{"type":"Point","coordinates":[135.7349,34.9179]},"properties":{"id":"way/1148730316","name":"南部クリーンセンター第二工場","fuel":"otherThermal","mw":14}},
{"type":"Feature","geometry":{"type":"Point","coordinates":[128.7157,32.6591]},"properties":{"id":"relation/13463676","name":"Goto Tamanoura wind farm","fuel":"wind","mw":14}},
{"type":"Feature","geometry":{"type":"Point","coordinates":[139.9414,36.9386]},"properties":{"id":"way/1138183062","name":"ソフトバンク那須塩原ソーラーパーク","fuel":"solar","mw":13.9}},
{"type":"Feature","geometry":{"type":"Point","coordinates":[140.1312,35.4929]},"properties":{"id":"way/1211917279","name":"Yamakura Dam Floating Solar Power Plant","fuel":"solar","mw":13.7}},
{"type":"Feature","geometry":{"type":"Point","coordinates":[138.9429,36.542]},"properties":{"id":"way/1084983572","name":"吾妻木質バイオマス発電所","fuel":"renewables","mw":13.6}},
{"type":"Feature","geometry":{"type":"Point","coordinates":[142.3725,42.7605]},"properties":{"id":"way/623430405","name":"Iwachishi Power Station","fuel":"hydro","mw":13.5}},
{"type":"Feature","geometry":{"type":"Point","coordinates":[143.043,43.2635]},"properties":{"id":"way/624378205","name":"然別第一発電所","fuel":"hydro","mw":13.5}},
{"type":"Feature","geometry":{"type":"Point","coordinates":[131.2797,32.1258]},"properties":{"id":"way/756529612","name":"立花発電所","fuel":"hydro","mw":13.4}},
{"type":"Feature","geometry":{"type":"Point","coordinates":[138.9803,36.7173]},"properties":{"id":"way/1083457095","name":"小松発電所","fuel":"hydro","mw":13.3}},
{"type":"Feature","geometry":{"type":"Point","coordinates":[136.8816,34.4139]},"properties":{"id":"way/1198221679","name":"リエネRJ鳥羽太陽光発電所","fuel":"solar","mw":13.3}},
{"type":"Feature","geometry":{"type":"Point","coordinates":[141.6951,42.6358]},"properties":{"id":"way/432584224","name":"ソーラーパワー苫小牧 勇払太陽光発電所","fuel":"solar","mw":13}},
{"type":"Feature","geometry":{"type":"Point","coordinates":[139.7273,35.4887]},"properties":{"id":"way/588341172","name":"扇島太陽光発電所","fuel":"solar","mw":13}},
{"type":"Feature","geometry":{"type":"Point","coordinates":[140.0131,36.5572]},"properties":{"id":"way/1072865487","name":"芳賀ソーラーパワー","fuel":"solar","mw":13}},
{"type":"Feature","geometry":{"type":"Point","coordinates":[139.0498,36.6032]},"properties":{"id":"way/1083445984","name":"伏田発電所","fuel":"hydro","mw":13}},
{"type":"Feature","geometry":{"type":"Point","coordinates":[139.8697,36.7131]},"properties":{"id":"way/1231890325","name":"ロイヤルカントリーメガソーラー","fuel":"solar","mw":13}},
{"type":"Feature","geometry":{"type":"Point","coordinates":[141.3684,41.2079]},"properties":{"id":"relation/11159666","name":"ユーラス小田野沢ウインドファーム","fuel":"wind","mw":13}},
{"type":"Feature","geometry":{"type":"Point","coordinates":[139.078,36.8775]},"properties":{"id":"way/1087224018","name":"奈良俣発電所","fuel":"hydro","mw":12.8}},
{"type":"Feature","geometry":{"type":"Point","coordinates":[140.6697,35.9054]},"properties":{"id":"way/1127417983","name":"株式会社カネカ 鹿島工場西地区 大規模太陽光発電所","fuel":"solar","mw":12.7}},
{"type":"Feature","geometry":{"type":"Point","coordinates":[131.1908,33.1206]},"properties":{"id":"way/744441184","name":"大岳発電所","fuel":"renewables","mw":12.5}},
{"type":"Feature","geometry":{"type":"Point","coordinates":[131.463,32.9824]},"properties":{"id":"way/761529566","name":"軸丸発電所","fuel":"hydro","mw":12.5}},
{"type":"Feature","geometry":{"type":"Point","coordinates":[141.4983,40.5445]},"properties":{"id":"way/796330823","name":"八戸バイオマス発電所","fuel":"renewables","mw":12.4}},
{"type":"Feature","geometry":{"type":"Point","coordinates":[131.446,32.6151]},"properties":{"id":"way/757456922","name":"星山発電所","fuel":"hydro","mw":12.2}},
{"type":"Feature","geometry":{"type":"Point","coordinates":[130.8369,33.3435]},"properties":{"id":"way/176458153","name":"Yoake Power Plant","fuel":"hydro","mw":12}},
{"type":"Feature","geometry":{"type":"Point","coordinates":[131.3636,32.3405]},"properties":{"id":"way/373867779","name":"渡川発電所","fuel":"hydro","mw":12}},
{"type":"Feature","geometry":{"type":"Point","coordinates":[131.1435,32.3376]},"properties":{"id":"way/758654661","name":"","fuel":"hydro","mw":12}},
{"type":"Feature","geometry":{"type":"Point","coordinates":[138.6121,36.5508]},"properties":{"id":"way/1085025016","name":"羽根尾発電所","fuel":"hydro","mw":12}},
{"type":"Feature","geometry":{"type":"Point","coordinates":[140.7214,42.8248]},"properties":{"id":"way/1472866533","name":"Hirafu Power Station","fuel":"hydro","mw":12}},
{"type":"Feature","geometry":{"type":"Point","coordinates":[141.423,41.3673]},"properties":{"id":"relation/11159665","name":"ユーラスヒッツ北野沢クリフ風力発電所","fuel":"wind","mw":12}},
{"type":"Feature","geometry":{"type":"Point","coordinates":[138.962,35.9366]},"properties":{"id":"way/1131091368","name":"大洞第一発電所","fuel":"hydro","mw":11.9}},
{"type":"Feature","geometry":{"type":"Point","coordinates":[139.2318,36.7817]},"properties":{"id":"way/1074121982","name":"鎌田発電所","fuel":"hydro","mw":11.6}},
{"type":"Feature","geometry":{"type":"Point","coordinates":[131.36,32.1571]},"properties":{"id":"way/756353982","name":"杉安発電所","fuel":"hydro","mw":11.5}},
{"type":"Feature","geometry":{"type":"Point","coordinates":[141.2023,40.7395]},"properties":{"id":"way/1030329187","name":"","fuel":"solar","mw":11.3}},
{"type":"Feature","geometry":{"type":"Point","coordinates":[137.656,34.6912]},"properties":{"id":"way/503285549","name":"","fuel":"solar","mw":11}},
{"type":"Feature","geometry":{"type":"Point","coordinates":[140.1666,35.5065]},"properties":{"id":"way/1134435807","name":"市原潤井戸太陽光発電所","fuel":"solar","mw":11}},
{"type":"Feature","geometry":{"type":"Point","coordinates":[131.1304,32.2846]},"properties":{"id":"way/746088984","name":"槇之口発電所","fuel":"hydro","mw":10.8}},
{"type":"Feature","geometry":{"type":"Point","coordinates":[139.3139,36.809]},"properties":{"id":"way/1074121975","name":"一之瀬発電所","fuel":"hydro","mw":10.7}},
{"type":"Feature","geometry":{"type":"Point","coordinates":[141.0474,40.5945]},"properties":{"id":"way/560071544","name":"立石発電所","fuel":"hydro","mw":10.5}},
{"type":"Feature","geometry":{"type":"Point","coordinates":[139.1426,35.593]},"properties":{"id":"way/734224246","name":"道志第一発電所","fuel":"hydro","mw":10.5}},
{"type":"Feature","geometry":{"type":"Point","coordinates":[140.9323,39.7985]},"properties":{"id":"way/781791644","name":"葛根田第一発電所","fuel":"hydro","mw":10.5}},
{"type":"Feature","geometry":{"type":"Point","coordinates":[141.2827,41.1131]},"properties":{"id":"relation/11159667","name":"ユーラス大豆田ウインドファーム","fuel":"wind","mw":10.5}},
{"type":"Feature","geometry":{"type":"Point","coordinates":[139.2667,36.7913]},"properties":{"id":"way/627351072","name":"白根発電所","fuel":"hydro","mw":10.3}},
{"type":"Feature","geometry":{"type":"Point","coordinates":[139.8566,36.7381]},"properties":{"id":"way/1067098572","name":"風見発電所","fuel":"hydro","mw":10.2}},
{"type":"Feature","geometry":{"type":"Point","coordinates":[131.6452,33.0592]},"properties":{"id":"way/761538240","name":"大野川発電所","fuel":"hydro","mw":10.1}},
{"type":"Feature","geometry":{"type":"Point","coordinates":[135.3807,34.6554]},"properties":{"id":"way/567598330","name":"大阪ひかりの森","fuel":"solar","mw":10}},
{"type":"Feature","geometry":{"type":"Point","coordinates":[143.1489,43.4365]},"properties":{"id":"way/992336757","name":"Horoka Power Plant","fuel":"hydro","mw":10}},
{"type":"Feature","geometry":{"type":"Point","coordinates":[139.4128,36.6164]},"properties":{"id":"way/1073462390","name":"足尾発電所","fuel":"hydro","mw":10}},
{"type":"Feature","geometry":{"type":"Point","coordinates":[130.2955,33.5635]},"properties":{"id":"way/1387899597","name":"クリーンパーク西部","fuel":"otherThermal","mw":10}},
{"type":"Feature","geometry":{"type":"Point","coordinates":[141.2624,40.9098]},"properties":{"id":"relation/11246506","name":"睦栄風力発電所","fuel":"wind","mw":10}},
{"type":"Feature","geometry":{"type":"Point","coordinates":[138.5727,35.5822]},"properties":{"id":"relation/13435151","name":"Komekurayama Solar Power Plant","fuel":"solar","mw":10}}
]}
