{"type":"FeatureCollection", "features": [
{"type":"Feature","geometry":{"type":"LineString","coordinates":[[137.6349,36.9803],[137.6675,36.9503],[137.711,36.9446],[137.7136,36.8915],[137.7332,36.8701],[137.7335,36.8301],[137.7625,36.7664],[137.82,36.7992],[137.8764,36.8672],[137.8714,36.9023],[137.9215,36.9199],[137.9916,36.9106],[138.0318,36.8899],[138.0033,36.8267],[138.0694,36.8049],[138.1152,36.8505],[138.1659,36.8448],[138.2144,36.8677],[138.2961,36.8563],[138.2984,36.9131],[138.3431,36.9209],[138.3947,36.9973],[138.4563,37.0198],[138.5246,37.0305],[138.5658,37.0214],[138.5864,36.9874],[138.5839,36.9283],[138.6267,36.8822],[138.6934,36.8523],[138.6956,36.8075],[138.6723,36.7707],[138.6957,36.7386],[138.5434,36.7039],[138.5198,36.6889],[138.5252,36.6515],[138.458,36.6333],[138.4274,36.5961],[138.4285,36.5556],[138.4039,36.5209],[138.4009,36.4347],[138.4898,36.4016],[138.5334,36.4023],[138.5922,36.4245],[138.6481,36.4083],[138.6535,36.3031],[138.6004,36.2785],[138.6031,36.2479],[138.6347,36.2056],[138.637,36.1745],[138.5875,36.1605],[138.598,36.1381],[138.6346,36.1336],[138.6306,36.0913],[138.6438,36.0507],[138.6314,36.0283],[138.7127,35.9853],[138.7387,35.9384],[138.7288,35.9093],[138.6854,35.8933],[138.6761,35.8699],[138.6105,35.8742],[138.6055,35.9087],[138.5093,35.922],[138.4901,35.8964],[138.4544,35.9003],[138.4403,35.9523],[138.3703,35.9715],[138.2922,35.8667],[138.2483,35.8859],[138.1855,35.7949],[138.2356,35.7575],[138.1803,35.7128],[138.2186,35.6445],[138.2594,35.5519],[138.2562,35.3186],[138.2856,35.3046],[138.3283,35.3275],[138.3724,35.2994],[138.3673,35.2721],[138.3986,35.2003],[138.4292,35.1819],[138.4916,35.1685],[138.5322,35.2234],[138.5146,35.2632],[138.5125,35.3141],[138.5349,35.3306],[138.5316,35.4062],[138.5778,35.4419],[138.6096,35.3932],[138.6635,35.3983],[138.6804,35.3577],[138.8718,35.3818],[138.9162,35.4005],[138.9954,35.4031],[139.0187,35.3298],[139.0048,35.2897],[138.9752,35.2617],[138.9876,35.2012],[139.0286,35.1699],[139.0305,35.1497],[139.1115,35.1413]]},"properties":{"name":"50/60"}}
]}